X,Y,amenity,name,emergency,addr:city,addr:street,addr:housenumber,addr:postcode,healthcare,website,phone,opening_hours,operator,beds,addr:state,old_name,healthcare:speciality,wikidata,wikipedia,building,short_name,social_facility:for,social_facility,wheelchair,alt_name,addr:country,access
,,hospital,Abilene Regional Medical Center,yes,Abilene,US 83,6250,79606,hospital,https://www.abileneregional.com/,+1 325 428 1000,24/7,,231,,,,,,,,,,,,,
,,hospital,Abilene State Supported Living Center,no,Abilene,Maple Street,2501,79602,hospital,https://www.dads.state.tx.us/services/SSLC/,+1 325 692 4053,,Texas Department of Aging and Disability Services,,TX,,,,,,,mental_health,group_home,,,,
,,hospital,Advanced Diagnostics East Hospital & 24 Hour Emergency Center,yes,Houston,East Freeway,12950,77015,hospital,http://www.adhealthcare.com/,+1 713 330 3887,24/7,Advanced Diagnostics Hospitals & Clinics,4,,,,,,,,,,,,,
,,hospital,Allegiance Specialty Hospital,yes,Kilgore,South Henderson Boulevard,1612,75662,hospital,,+1 903 984 3505,24/7,Allegiance Health Management,,TX,Roy H Laird Memorial Hospital,,,,,,,,,,,
,,hospital,Altus Baytown Hospital,yes,Baytown,West Baker Road,1626,77521,hospital,https://www.altushospital.org/,+1 281 837 7600,24/7,Altus Hospital,14,,,,,,,,,,,,,
,,hospital,Anson General Hospital,yes,Anson,Avenue J,101,79501,hospital,,+1 325 823 3231,24/7,,,,,,,,,,,,,,,
,,hospital,Arise Austin Medical Center,yes,Austin,Bee Caves Road,3003,78746,hospital,http://www.arisemedicalcenter.com/,+1 512 314 3800,24/7,Arise Healthcare,,,Renaissance Womens Center of Austin,,,,,,,,,,,
,,hospital,Ascension Seton Highland Lakes Hospital,yes,Burnet,South Water Street,3201,78611,hospital,https://www.seton.net/locations/highland-lakes/,+1 512 715 3000,24/7,Ascension,25,,,,,,,,,,,,,
,,hospital,Austin Oaks Hospital,no,Austin,West Stassney Lane,1407,78745,hospital,https://austinoakshospital.com/,+1 512 440 4800,,,80,,,psychiatry,,,,,,,,,,
,,hospital,Austin State Hospital,no,Austin,Guadalupe Street,4110,78751,hospital,https://www.dshs.texas.gov/mhhospitals/AustinSH/,+1 512 452 0381,,,,,,psychiatry,Q4823299,en:Austin State Hospital,,,mental_health,group_home,,,,
,,hospital,Austin State Supported Living Center,no,Austin,West 35th Street,2203,78703,hospital,https://www.dads.state.tx.us/services/SSLC/,+1 512 454 4731,,Texas Department of Aging and Disability Services,,TX,,,,,,,mental_health,group_home,,,,
,,hospital,Ballinger Memorial Hospital,yes,Ballinger,Avenue B,608,76821,hospital,,+1 325 365 2531,24/7,,,,,,,,,,,,,,,
,,hospital,Baptist Emergency Hospital,yes,San Antonio,North Loop 1604 West,8230,78249,hospital,https://www.baptistemergencyhospital.com/,+1 210 572 8885,24/7,,,TX,,,,,hospital,,,,,,US,
,,hospital,Baptist Hospitals of Southeast Texas - Beaumont Campus,yes,Beaumont,College Street,3080,77701,hospital,https://www.bhset.net/About-Us/Our-Facilities/Beaumont.aspx,+1 409 212 5000,24/7,Baptist Hospitals of Southeast Texas,,,Memorial Hermann Baptist Beaumont Hospital,,,,,,,,,,,
,,hospital,"Baptist Hospitals of Southeast Texas, Orange Campus",yes,Orange,Strickland Drive,608,77630,hospital,https://www.bhset.net/About-Us/Our-Facilities/Orange.aspx,+1 409 883 9361,24/7,Baptist Hospitals of Southeast Texas,,,Memorial Hermann Baptist Orange Hospital,,,,,,,,,,,
,,hospital,Baptist Medical Center,yes,San Antonio,Dallas Street,111,78205,hospital,https://www.baptisthealthsystem.com/our-locations/baptist-medical-center,+1 210 297 7000,24/7,TH Medical,,,,,,,,,,,,,,
,,hospital,Baptist Saint Anthony's Health System,yes,Amarillo,Wallace Boulevard,1600,79106,hospital,https://bsahs.org/,+1 806 212 2000,24/7,,,TX,,,,,,,,,,,,
,,hospital,Bay Area Regional Medical Center,yes,Webster,Blossom Street,200,77598,hospital,https://www.barmc.us/,+1 281 525 7000,24/7,,,TX,,,,,,,,,,,,
,,hospital,Baylor College of Medicine McNair Campus,no,,,,,hospital,,,,,,,,,,,,,,,,,,
,,hospital,Baylor Emergency Medical Center,yes,Burleson,South Freeway,12500,76028,hospital,https://www.bayloremc.com/burleson/,+1 214 294 6250,24/7,Baylor Scott & White Health,8,,,,,,,,,,,,,
,,hospital,Baylor Emergency Medical Center,yes,Rockwall,Alpha Drive,1975,75087,hospital,https://www.bayloremc.com/rockwall/,+1 214 294 6200,24/7,Baylor Scott & White Health,8,,,,,,,,,,,,,
,,hospital,Baylor Medical Center at Trophy Club,yes,Trophy Club,East State Highway 114,2850,76262,hospital,http://www.baylortrophyclub.com/,+1 817 837 4600,24/7,Baylor Scott & White Health,22,,,,,,,,,,,,,
,,hospital,Baylor Medical Center at Uptown,yes,Dallas,East Lemmon Avenue,2727,75204,hospital,http://www.bayloruptown.com/,+1 214 443 3000,24/7,,,,Mary Shiels Hospital,,,,yes,,,,,,,
,,hospital,Baylor Orthopedic and Spine Hospital,yes,Arlington,Highlander Boulevard,707,76015,hospital,http://baylorarlington.com/,+1 855 416 7846,24/7,Baylor Scott & White Health,20,,,,,,,,,,,,,
,,hospital,Baylor Scott & White All Saints Medical Center – Fort Worth,yes,Fort Worth,8th Avenue,1400,76104,hospital,https://www.bswhealth.com/locations/fort-worth,+1 817 926 2544,24/7,Baylor Scott & White Health,574,,Baylor All Saints Hospital,,,,,,,,,,,
,,hospital,Baylor Scott & White Emergency Medical Center,yes,Cedar Park,East Whitestone Boulevard,900,78613,hospital,https://www.bswemc.org/,+1 512 684 4000,24/7,Baylor Scott & White Health,8,TX,,,,,hospital,,,,,,,
,,hospital,Baylor Scott & White Hillcrest Medical Center,yes,Waco,Hillcrest Medical Boulevard,100,76712,,http://www.sw.org/location/waco-hillcrest-medical-center,254-202-2000,,,,,Hillcrest Baptist Medical Center,,,,,,,,,,,
,,hospital,Baylor Scott & White Institute for Rehabilitation,no,Dallas,North Washington Avenue,909,75246,hospital,https://www.bswrehab.com/,+1 214 820 9300,,Baylor Scott & White Health,92,,Baylor Institute for Rehabilitation at Gaston Episcopal Hospital,,,,hospital,,,,,,,
,,hospital,Baylor Scott & White Medical Center – Brenham,yes,Brenham,Medical Parkway,700,77833,hospital,https://www.bswhealth.com/locations/brenham,+1 979 337 5000,24/7,Baylor Scott & White Health,60,,Trinity Community Medical Center of Brenham,,,,,,,,,,,
,,hospital,Baylor Scott & White Medical Center – Carrollton,yes,Carrollton,North Josey Lane,4343,75010,hospital,https://www.bswhealth.com/locations/carrollton,+1 972 492 1010,24/7,Baylor Scott & White Health,,,Trinity Medical Center,,,,,,,,,,,
,,hospital,Baylor Scott & White Medical Center – Centennial,yes,Frisco,Lebanon Road,12505,75035,hospital,https://www.bswhealth.com/locations/centennial,+1 972 963 3333,24/7,Baylor Scott & White Health,,,Centennial Medical Center,,,,,,,,,,US,
,,hospital,Baylor Scott & White Medical Center – College Station,yes,College Station,Scott & White Drive,700,77845,hospital,https://www.bswhealth.com/locations/college-station,+1 979 207 0100,24/7,Baylor Scott & White Health,143,,,,,,,,,,,,,
,,hospital,Baylor Scott & White Medical Center – Frisco,yes,Frisco,Warren Parkway,5601,75034,hospital,https://baylorfrisco.com/,+1 214 407 5000,24/7,Baylor Scott & White Health,68,,,,,,,,,,,,,
,,hospital,Baylor Scott & White Medical Center – Grapevine,yes,Grapevine,West College Street,1650,76051,hospital,https://www.bswhealth.com/locations/grapevine,+1 817 481 1588,24/7,Baylor Scott & White Health,,,Baylor Medical Center at Grapevine,,,,,,,,,,,
,,hospital,Baylor Scott & White Medical Center – Irving,yes,Irving,North Macarthur Boulevard,1901,75061,hospital,https://www.bswhealth.com/locations/irving/about,+1 972 579 8100,24/7,Baylor Scott & White Health,296,,Baylor Medical Center at Irving,,,,,,,,,,,
,,hospital,Baylor Scott & White Medical Center – Lake Pointe,yes,Rowlett,Scenic Drive,6800,75088,hospital,https://www.bswhealth.com/locations/lake-pointe/,+1 972 412 2273,24/7,Baylor Scott & White Health,112,,Lake Pointe Medical Center,,,,,,,,,,,
,,hospital,Baylor Scott & White Medical Center – Llano,yes,Llano,West Ollie Street,200,78643,hospital,https://www.bswhealth.com/locations/llano,+1 325 247 5040,24/7,Baylor Scott & White Health,,,Llano Memorial Hospital,,,,,,,,,,,
,,hospital,Baylor Scott & White Medical Center – Marble Falls,yes,Marble Falls,West Highway 71,810,78654,hospital,https://www.bswhealth.com/locations/marble-falls,+1 830 201 8000,24/7,Baylor Scott & White Health,46,,,,,,,,,,,,,
,,hospital,Baylor Scott & White Medical Center – McKinney,yes,McKinney,West University Drive,5252,75071,hospital,https://www.bswhealth.com/locations/mckinney/,+1 469 764 1000,24/7,Baylor Scott & White Health,,,,,,,,,,,,,,
,,hospital,Baylor Scott & White Medical Center - Plano,yes,Plano,Alliance Boulevard,4700,75093,hospital,https://www.bswhealth.com/locations/plano,+1 469 814 2000,24/7,Baylor Scott & White Health,,,,,,,,,,,,,,
,,hospital,Baylor Scott & White Medical Center – Round Rock,yes,Round Rock,University Boulevard,300,78665,hospital,https://www.bswhealth.com/locations/round-rock,+1 512 509 0100,24/7,Baylor Scott & White Health,,,,,,,,,,,,,,
,,hospital,Baylor Scott & White Me​dical Center – Sunnyvale,yes,Sunnyvale,South Collins Road,231,75182,hospital,https://www.bswhealth.com/locations/sunnyvale,+1 972 892 3000,24/7,Baylor Scott & White Health,70,TX,,,,,,,,,,,,
,,hospital,Baylor Scott & White Medical Center – Taylor,yes,Taylor,Mallard Lane,305,76574,hospital,https://www.bswhealth.com/locations/taylor,+1 512 352 7611,24/7,Baylor Scott & White Health,25,,,,,,,,,,,,,
,,hospital,Baylor Scott & White Medical Center - Temple,yes,Temple,South 31st Street,2401,76508,hospital,https://www.bswhealth.com/locations/temple,+1 254 724 2111,24/7,Baylor Scott & White Health,640,,,,,,,,,,,,,
,,hospital,Baylor Scott & White Medical Center – Waxahachie,yes,Waxahachie,I 35 Frontage Road,2400,75165,hospital,http://www.baylorhealth.com/PhysiciansLocations/Waxahachie/Pages/Default.aspx,+1 469 843 4000,24/7,Baylor Scott & White Health,,TX,,,,,,,,,yes,,,
,,hospital,Baylor Scott & White Surgical Hospital at Sherman,yes,Sherman,North Calais Street,3601,75090,hospital,https://baylorsherman.com/,+1 903 870 0999,24/7,Baylor Scott & White Health,12,,,,,,,,,,,,,
,,hospital,Baylor Scott & White Texas Spine & Joint Hospital,yes,Tyler,Roseland Boulevard,1814,75701,hospital,https://tsjh.org/,+1 903 525 3300,24/7,BSW Health,,,,"surgery;orthopaedics",,,,TSJH,,,,,,
,,hospital,Baylor Surgical Hospital at Fort Worth,yes,Fort Worth,Park Place Avenue,1800,76110,hospital,http://bshfw.com/,+1 682 703 5600,24/7,,,,,,,,,,,,,,,
,,hospital,Baylor Surgical Hospital at Las Colinas,yes,Irving,West Interstate 635,440,75063,hospital,http://baylorlascolinas.com/,+1 209 868 4000,24/7,,,TX,,,,,,,,,,,,
,,hospital,Baylor University Medical Center,yes,Dallas,Gaston Avenue,3500,75246,hospital,https://www.bswhealth.com/locations/dallas,+1 214 820 0111,24/7,Baylor Scott & White Health,,,,,Q4874615,en:Baylor University Medical Center at Dallas,,,,,yes,Baylor Hospital,,
,,hospital,Bayshore Medical Center,yes,Pasadena,Spencer Highway,4000,77504,hospital,https://bayshoremedical.com/,+1 713 359 2000,24/7,HCA,345,,Pasadena Bay Shore Hospital,,,,,,,,,,,
,,hospital,Bayside Community Hospital,yes,Anahuac,Hospital Drive,200,77514,hospital,http://www.chambershealth.org/html/bayside_hospital.html,+1 409 267 3143,24/7,Chambers Health,,,,,,,,,,,,,,
,,hospital,Bayview Behavioral Hospital,no,Corpus Christi,Wooldridge Road,6629,78414,hospital,https://bayviewbehavioralhospital.com/,+1 361 986 8200,,HCA,,,Padre Behavioral Hospital,psychiatry,,,,,,,,,,
,,hospital,Behavioral Hospital at Renaissance,no,Edinburg,Raphael Drive,5510,78539,hospital,http://www.dhr-rgv.com/Healthcare-Services/Behavioral-Hospital#,+1 956 362 4357,24/7,Doctors Hospital at Renaissance,88,,,psychiatry,,,,,,,,,,
,,hospital,Ben Taub General Hospital,yes,Houston,Taub Loop,1504,77030,hospital,https://www.harrishealth.org/locations-hh/Pages/ben-taub.aspx,+1 713 873 2000,24/7,Harris Health,444,TX,,,Q4886546,en:Ben Taub Hospital,hospital,,,,,,,
,,hospital,Big Bend Regional Medical Center,yes,Alpine,North Highway 116,2600,79830,hospital,http://www.bigbendhealthcare.com/,+1 432 837 3447,24/7,,,,,,,,,,,,,,,
,,hospital,Big Spring State Hospital,no,Big Spring,North Highway 87,1901,79720,,https://dshs.texas.gov/mhhospitals/default.shtm,,,Texas Department of State Health Services,,TX,,,,,,,mental_health,,,,,
,,hospital,Brenham State Supported Living Center,no,Brenham,Texas 36 South,4001,77833,hospital,,+1 979 836 4511,,Texas Department of Aging and Disability Services,,TX,,,,,,,mental_health,group_home,,,,
,,hospital,Brownfield Regional Medical Center,yes,Brownfield,East Felt Street,705,79316,hospital,https://www.brownfield-rmc.org/,+1 806 637 3551,24/7,,,,,,,,,BRMC,,,,,,
,,hospital,Cameron Hospital,yes,Cameron,North Crockett Avenue,806,76520,hospital,http://lrhealthcare.com/locations/cameron-hospital,+1 254 605 1300,24/7,Little River Healthcare,,,Central Texas Hospital,,,,,,,,,,,
,,hospital,Care Regional Medical Center,yes,Aransas Pass,West Wheeler Avenue,1711,78336,hospital,http://crmctx.com/,+1 361 758 8585,24/7,,,,North Bay Hospital,,,,,,,,,,,
,,hospital,Carl R. Darnall Army Medical Center,yes,Fort Hood,Santa Fe Avenue,36065,76544,hospital,https://www.crdamc.amedd.army.mil/,+1 254 288 8000,24/7,,,,,,Q5040673,en:Carl R. Darnall Army Medical Center,,,,,,,,private
,,hospital,Cedar Park Medical Center,yes,Cedar Park,Medical Parkway,1401,78613,hospital,https://www.cedarparkregional.com/,+1 512 528 7000,24/7,,,,,,,,,,,,,,,
,,hospital,Center for the Intrepid,no,Fort Sam Houston,Roger Brooke Drive,3551,78234,hospital,https://www.bamc.amedd.army.mil/departments/rehabilitation-medicine/cfi/,+1 210 916 6100,,,,,,,Q5059945,en:Center for the Intrepid,hospital,,,,,,,
,,hospital,Central Hospital of Bowie,yes,Bowie,East Greenwood Avenue,705,76230,hospital,http://www.bowiehospital.com/,+1 940 872 1126,24/7,,,,Bowie Memorial Hospital,,,,,,,,,,,
,,hospital,Central Texas Medical Center,yes,San Marcos,Wonder World Drive,1301,78666,hospital,https://www.ctmc.org/,+1 512 353 8979,24/7,Adventist Health System,,,,,,,,,,,,,,
,,hospital,Childrens Medical Center of Dallas,yes,Dallas,Medical District Drive,1935,75235,hospital,https://www.childrens.com/location-landing/locations-and-directions/childrens-health-dallas,+1 844 424 4537,24/7,Children's Health,487,,,paediatrics,Q5098157,en:Children's Medical Center Dallas,hospital,,,,,,,
,,hospital,Children’s Medical Center Plano,yes,Plano,Preston Road,7601,75024,hospital,https://www.childrens.com/location-landing/locations-and-directions/childrens-health-plano-campus/childrens-health-plano,+1 469 303 7000,24/7,Children's Health,,,,paediatrics,Q5098158,,,,,,,,,
,,hospital,Children's Memorial Hermann Hospital,yes,Houston,Fannin Street,6411,77030,hospital,http://childrens.memorialhermann.org/,+1 713 704 5437,24/7,,,,,paediatrics,,,hospital,,,,,,,
,,hospital,Childress Regional Medical Center,yes,Childress,Highway 83 North,901,79201,hospital,http://childresshospital.com/,+1 940 937 6371,24/7,,39,,,,,,,CRMC,,,,,,
,,hospital,Chillicothe Hospital,yes,Chillicothe,Avenue i,303,79225,hospital,http://www.chillhd.org/,+1 940 852 5131,24/7,,,,,,,,,,,,,,,
,,hospital,CHI Sainit Luke's Health-Memorial Livingston,yes,Livingston,Highway 59 Bypass,1717,77351,hospital,https://www.chistlukeshealthmemorial.org/centers/livingston/,+1 936 329 8700,24/7,CHI Saint Luke’s Health,66,,,,,,,,,,,,,
,,hospital,CHI Saint Joseph Health Bellville Hospital,yes,Bellville,North Cummings Road,44,77418,hospital,https://www.chistjoseph.org/locations/chi-st-joseph-health-bellville-hospital,+1 979 413 7400,24/7,CHI Saint Joseph Health,32,,Bellville General Hospital,,,,,,,,,,,
,,hospital,CHI Saint Joseph Health Burleson Hospital,yes,Burleson,Woodson Drive,1101,77836,hospital,https://www.chistjoseph.org/locations/chi-st-joseph-health-burleson-hospital,+1 979 567 3245,24/7,CHI Saint Joseph Health,,,,,,,,,,,,,,
,,hospital,CHI Saint Joseph Health Grimes Hospital,yes,Navasota,South Judson Street,210,77868,hospital,https://www.chistjoseph.org/locations/chi-st-joseph-health-grimes-hospital,+1 936 825 6585,24/7,CHI Saint Joseph Health,25,TX,,,,,,,,,,,,
,,hospital,CHI Saint Joseph Health Madison Hospital,yes,Madison,West Cross Street,100,77864,hospital,https://www.chistjoseph.org/locations/chi-st-joseph-health-madison-hospital,+1 936 348 2631,24/7,CHI Saint Joseph Health,25,,,,,,,,,,,,,
,,hospital,CHI Saint Joseph Health Regional Hospital,yes,Bryan,Franciscan Drive,2801,77802,hospital,https://www.chistjoseph.org/locations/chi-st-joseph-health-burleson-hospital,+1 979 776 3777,24/7,CHI Saint Joseph Health,,,,,,,,,,,,,,
,,hospital,CHI Saint Luke's Health Brazosport,yes,Lake Jackson,Medical Drive,100,77566,hospital,http://www.brazosportregional.org/,+1 979 297 4411,24/7,CHI Saint Luke's Health,154,TX,Brazosport Memorial Hospital,,,,,,,,,,,
,,hospital,CHI Saint Luke's Health-Memorial Lufkin,yes,Lufkin,West Frank Avenue,1201,75904,hospital,http://www.memorialhealth.us/centers/lufkin,+1 936 634 8111,24/7,CHI Saint Luke's Health,271,TX,,,,,,,,,,,,
,,hospital,CHI Saint Luke’s Health - Patients Medical Center,yes,Pasadena,East Sam Houston Parkway South,4600,77505,hospital,https://www.chistlukeshealth.org/pmc,+1 713 948 7000,24/7,CHI Saint Luke’s Health,,,,,,,,,,,,,,
,,hospital,CHI Saint Luke's Health–Sugar Land Hospital,yes,Sugar Land,Lake Pointe Parkway,1317,77478,hospital,https://www.chistlukeshealth.org/sugarlandhospital,+1 281 637 7000,24/7,CHI Saint Luke's Health,,,,,,,,,,,,,,
,,hospital,CHI Saint Luke's Health - The Vintage Hospital,yes,Houston,Chasewood Park Drive,20171,77070,hospital,https://www.chistlukeshealth.org/thevintagehospital,+1 832 534 5000,24/7,CHI Saint Luke's Health,,,,,,,,,,,,,,
,,hospital,CHI Saint Luke's Health–The Woodlands Hospital,yes,The Woodlands,Saint Luke's Way,17200,77384,hospital,https://www.chistlukeshealth.org/thewoodlandshospital,+1 936 266 2000,24/7,CHI Saint Luke's Health,,,,,,,,,,,,,,
,,hospital,CHI St. Luke’s Health Memorial San Augustine,yes,San Augustine,East Hospital Street,511,75972,,http://www.memorialhealth.us/centers/san-augustine,+1-936-275-3446,,,,TX,,,,,,,,,,,,
,,hospital,CHRISTUS Good Shepherd Medical Center,yes,Longview,East Marshall Avenue,700,75601,hospital,https://www.christushealth.org/good-shepherd/longview,+1 903 315 1800,24/7,CHRISTUS Health,,TX,,,,,,,,,,,,
,,hospital,CHRISTUS Good Shepherd Medical Center - Marshall,yes,Marshall,South Washington Avenue,811,75670,hospital,https://www.christushealth.org/good-shepherd/marshall,+1 903 927 6000,24/7,CHRISTUS Health,149,TX,,,,,,,,,,,,
,,hospital,CHRISTUS Mother Frances Hospital - South Tyler,yes,Tyler,South Broadway Avenue,8389,,hospital,,,,CHRISTUS,,TX,,"emergency;cardiology;maternity",,,,,,,,,,
,,hospital,CHRISTUS Mother Frances Hospital - Sulphur Springs,yes,Sulphur Springs,Airport Road,115,75482,hospital,https://www.tmfhc.org/maps-and-locations/christus-mother-frances-hospital---sulphur-springs/,+1 903 885 7671,24/7,CHRISTUS Trinity Mother Frances Health System,,,Hopkins County Memorial Hospital,,,,,,,,,,,
,,hospital,CHRISTUS Mother Frances Hospital - Tyler,yes,Tyler,East Dawson Street,800,75701,hospital,https://www.tmfhc.org/,+1 903 593 8441,24/7,CHRISTUS Trinity Mother Frances Health System,402,,Mother Frances Hospital,,,,,,,,,,,
,,hospital,CHRISTUS Mother Frances Hospital - Winnsboro,yes,Winnsboro,West Coke Road,719,,hospital,https://www.tmfhc.org/maps-and-locations/locations-profile/christus-mother-frances-hospital-winnsboro/,+1-903-342-5227,24/7,CHRISTUS Trinity Mother Frances Health System,,,,"general;gynaecology;cardiology;surgery;emergency;orthopaedics;radiology",,,,,,,,,,
,,hospital,Christus Saint Michael,yes,Texarkana,Saint Michael Drive,2600,75503,hospital,https://www.christushealth.org/st-michael,+1 903 614 1000,24/7,CHRISTUS Health,,TX,,,,,,,,,,,,
,,hospital,CHRISTUS Saint Michael Hospital-Atlanta,yes,Atlanta,South Williams Street,1007,75551,hospital,https://www.christushealth.org/st-michael-atlanta,+1 903 799 3000,24/7,CHRISTUS Health,43,,Atlanta Memorial Hospital,,,,,,,,yes,,,
,,hospital,Christus Saint Michael Rehabilitation Hospital,no,Texarkana,Saint Michael Drive,2400,75503,hospital,https://www.christushealth.org/st-michael/services-treatments/rehabilitation,+1 903 614 4000,,CHRISTUS Health,,TX,,,,,,,,,,,,
,,hospital,CHRISTUS Santa Rosa Hospital - Alamo Heights,yes,San Antonio,Treeline Park,403,78209,hospital,https://www.christushealth.org/santa-rosa/alamo-heights,+1 210 294 8000,24/7,CHRISTUS Health,43,,,,,,,,,,,,,
,,hospital,CHRISTUS Santa Rosa Hospital - Medical Center,yes,San Antonio,Babcock Road,2827,78229,hospital,https://www.christushealth.org/santa-rosa/medical-center,+1 210 705 6300,24/7,CHRISTUS Health,,,,,,,,,,,,,,
,,hospital,CHRISTUS Santa Rosa - New Braunfels,yes,New Braunfels,North Union Avenue,600,78130,hospital,https://www.christushealth.org/santa-rosa/new-braunfels,+1 830 606 9111,24/7,CHRISTUS Health,,,McKenna Memorial Hospital,,,,,,,,,,,
,,hospital,CHRISTUS Santa Rosa - Westover Hills,yes,San Antonio,State Highway 151,11212,78251,hospital,https://www.christushealth.org/santa-rosa/westover-hills,+1 210 703 8000,24/7,CHRISTUS Health,,,,,,,,,,,,,,
,,hospital,CHRISTUS Southeast Texas - Jasper Memorial,yes,Jasper,Marvin Hancock Drive,1275,75951,hospital,https://www.christushealth.org/southeast-texas/jasper,+1 409 384 5461,24/7,CHRISTUS Health,,,,,,,,,,,,,,
,,hospital,CHRISTUS Southeast Texas - Saint Elizabeth,yes,Beaumont,Calder Street,2830,77702,hospital,https://www.christushealth.org/southeast-texas/st-elizabeth,+1 409 892 7171,24/7,CHRISTUS Health,431,,,,,,,,,,,,,
,,hospital,CHRISTUS Southeast Texas - Saint Mary,yes,Port Arthur,Gates Boulevard,3600,77642,hospital,https://www.christushealth.org/southeast-texas/st-mary/,+1 409 985 7431,24/7,CHRISTUS Health,,,,,,,,,,,,,,
,,hospital,CHRISTUS Spohn Hospital Alice,yes,Alice,East Main Street,2500,78332,hospital,https://www.christushealth.org/spohn/alice,+1 361 881 3000,24/7,CHRISTUS Health,,,,,,,,,,,,,,
,,hospital,CHRISTUS Spohn Hospital Beeville,yes,Beeville,East Houston Highway,1500,78102,hospital,https://www.christushealth.org/spohn/beeville,+1 361 354 2000,24/7,CHRISTUS Health,,,,,,,,,,,,,,
,,hospital,CHRISTUS Spohn Hospital Corpus Christi - Memorial,yes,Corpus Christi,Hospital Boulevard,2606,78405,hospital,https://www.christushealth.org/spohn/memorial,+1 361 902 4000,24/7,CHRISTUS Health,,,Corpus Christi Memorial Hospital,,Q5172653,en:Corpus Christi Memorial Hospital,,,,,,,,
,,hospital,CHRISTUS Spohn Hospital Corpus Christi - Shoreline,yes,Corpus Christi,Elizabeth Street,600,78404,hospital,https://www.christushealth.org/spohn/shoreline,+1 361 881 3000,24/7,CHRISTUS Health,,,Spohn Hospital,,,,,,,,,,,
,,hospital,CHRISTUS Spohn Hospital Corpus Christi - South,yes,Corpus Christi,Saratoga Boulevard,5950,78414,hospital,https://www.christushealth.org/spohn/south,+1 361 881 3000,24/7,CHRISTUS Health,,,,,,,,,,,,,,
,,hospital,CHRISTUS Spohn Hospital - Kleberg,yes,Kingsville,General Cavazos Boulevard,1311,78363,hospital,https://www.christushealth.org/spohn/kleberg,+1 361 595 1661,24/7,CHRISTUS Health,,,,,,,,,,,,,,
,,hospital,Citizens Medical Center,yes,Victoria,Hospital Drive,2701,77901,hospital,https://citizensmedicalcenter.org/,+1 361 573 9181,24/7,,,,,,,,,,,,,,,
,,hospital,City Hospital at White Rock,yes,Dallas,Poppy Drive,9440,75218,hospital,https://cityhospital.co/,+1 214 324 6100,24/7,,,,"Doctors Hospital at White Rock;Baylor Scott & White Medical Center – White Rock",,,,,,,,yes,,,
,,hospital,Clarity Child Guidance Center,no,San Antonio,Tom Slick,8535,78229,hospital,https://www.claritycgc.org/,+1 210 616 0300,,,,,,paediatric_psychiatry,,,,,,,,,,
,,hospital,Clay County Memorial Hospital,yes,Henrietta,West South Street,310,76365,hospital,https://www.ccmhospital.com/,+1 940 538 5621,24/7,,,,,,,,,,,,,,,
,,hospital,Clear Lake Regional Medical Center,yes,Webster,Medical Center Boulevard,500,77598,hospital,https://clearlakermc.com/,+1 281 332 2511,24/7,HCA,,,,,,,,,,,,,,
,,hospital,Cleveland Emergency Hospital,yes,Cleveland,South Travis Avenue,1017,77327,hospital,https://www.clevelandemergency.com/,+1 281 592 5400,24/7,,4,,,,,,,,,,,,,
,,hospital,Cochran Memorial Hospital,yes,Morton,East Grant Avenue,201,79346,hospital,,+1 806 266 5565,24/7,,,TX,,,,,,,,,,,,
,,hospital,Cogdell Memorial Hospital,yes,Snyder,Cogdell Boulevard,1700,79549,hospital,https://www.cogdellhospital.com/,+1 325 573 6374,24/7,,,,,,,,,,,,,,,
,,hospital,Coleman County Medical Center,yes,Coleman,South Pecos Street,310,76834,hospital,https://www.colemancountymc.com/,+1 325 625 2135,24/7,,,,,,,,,,,,,,,
,,hospital,College Station Medical Center,yes,College Station,Rock Prairie Road,1604,77845,hospital,https://www.csmedcenter.com/,+1 979 764 5100,24/7,,167,,,,,,,,,,,The Med,,
,,hospital,Collingsworth General Hospital,yes,Wellington,15th Street,1013,79095,hospital,http://www.collingsworthgeneral.net/,+1 806 447 2521,24/7,,,,,,,,,,,,,,,
,,hospital,Columbia Kingwood Medical Center,yes,Kingwood,US Highway 59 North,22999,77339,hospital,https://kingwoodmedical.com/,+1-281-348-8000,,,,TX,,"general;gynaecology;surgery;neurology;urology;internal;cardiology;trauma;paediatrics;endocrinology;oncology;otolaryngology;podiatry;orthopaedics;radiology;obstetrics;somnology",,,,,,,yes,,,
,,hospital,Columbus Community Hospital,yes,Columbus,Shult Drive,110,78934,hospital,http://www.columbusch.com/,+1 979 732 2371,24/7,,40,,,,,,,,,,,,,
,,hospital,Comanche County Medical Center,yes,Comanche,TX 16,10201,76442,hospital,https://www.comanchecmc.org/,+1 254 879 4900,24/7,,,,,,,,,CCMC,,,,,,
,,hospital,Concho County Hospital,yes,Eden,Eaker Street,614,76837,hospital,http://conchocountyhospital.com/index.php,+1 325 869 5911,24/7,,,,,,,,,,,,,,,
,,hospital,Connally Memorial Medical Center,yes,Floresville,10th Street,499,78114,hospital,https://www.connallymmc.org/,+1-830-393-1300,24/7,,,TX,,,,,,,,,,,,
,,hospital,Connerstone Regional Hospital,yes,Edinburg,Cornerstone Boulevard,2302,78539,hospital,https://cornerstoneregional.com/,+1 956 618 4444,24/7,Universal Health Services,,,,,Q18712865,en:Cornerstone Regional Hospital,,,,,,,,
,,hospital,Conroe Regional Medical Center,yes,Conroe,Medical Center Boulevard,504,77304,hospital,https://conroeregional.com/,+1 936 539 1111,24/7,HCA,,,,,,,,,,,,,,
,,hospital,Cook Children's Medical Center,yes,Fort Worth,7th Avenue,801,76104,hospital,https://www.cookchildrens.org/medical-center/,+1 682 885 4000,24/7,Cook Children's Health Care System,,TX,,paediatrics,Q30254344,en:Cook Children's Medical Center,,,,,,,US,
,,hospital,Cook Children's Northeast,yes,Hurst,Precinct Line Road,6316,76054,hospital,https://cookchildrens.org/northeast-hospital/,+1 817 605 2500,24/7,Cook Children's Health Care System,,,,paediatrics,,,,,,,,,,
,,hospital,Coon Memorial Hospital,yes,Dalhart,Denver Avenue,1411,79022,hospital,http://www.dhchd.org/,+1 806 244 4571,24/7,Dallam-Hartley Counties Hospital District,,,,,,,,,,,,,,
,,hospital,Corpus Christi Medical Center - Bay Area,yes,Corpus Christi,South Padre Island Drive,7101,78412,hospital,https://ccmedicalcenter.com/location/bay-area,+1 361 761 1000,24/7,HCA,,,,,,,,,,,,,,
,,hospital,Corpus Christi Medical Center - Doctors Regional,yes,Corpus Christi,South Alameda Street,3315,78411,hospital,https://ccmedicalcenter.com/location/doctors-regional,+1 361 761 1000,24/7,,,,,,,,,,,,,,,
,,hospital,Corpus Christi Medical Center - Northwest Regional,yes,Corpus Christi,Northwest Boulevard,13725,78410,hospital,https://ccmedicalcenter.com/location/northwest-regional,+1 361 761 1000,24/7,HCA,,TX,,,,,,,,,,,,
,,hospital,Corpus Christi State Supported Living Center,no,Corpus Christi,Airport Road,902,78405,hospital,https://hhs.texas.gov/services/disability/intellectual-or-developmental-disabilities-idd-long-term-care/state-supported-living-centers-sslcs,+1 361 888 5301,,Texas Department of Aging and Disability Services,,TX,,,,,,,mental_health,group_home,,,,
,,hospital,Coryell Memorial Healthcare System,yes,Gatesville,West Main Street,1507,76528,hospital,http://www.cmhos.org/,+1 254 865 8251,24/7,,,,,,,,,,,,,,,
,,hospital,Covenant Children’s,yes,Lubbock,24th Street,4002,79410,hospital,https://www.covenantchildrens.org/,+1 806 725 0000,24/7,Covenant Health,,TX,,,,,,,,,,,,
,,hospital,Covenant Health Plainview,yes,Plainview,Dimmitt Road,2601,79072,hospital,https://www.covenanthealth.org/contact-us/locations/covenant-health-plainview/,+1 806 296 5531,24/7,Covenant Health,100,TX,,,,,,,,,,,,
,,hospital,Covenant Hospital Levelland,yes,Levelland,College Avenue,1900,79347,hospital,https://www.covenanthealth.org/contact-us/locations/covenant-health-levelland/,+1 806 894 4963,24/7,Covenant Health,,,,,,,,,,,,,,
,,hospital,Covenant Medical Center,yes,Lubbock,19th Street,3615,79410,hospital,https://www.covenanthealth.org/contact-us/locations/covenant-medical-center/,+1 806 725 0000,24/7,Covenant Health,,TX,,,,,,,,,,,,
,,hospital,Crane Memorial Hospital,yes,Crane,South Alford Street,1310,79731,hospital,http://www.cranememorial.org/,+1 432 558 3555,24/7,,,,,,,,,,,,,,,
,,hospital,Crescent Medical Center Lancaster,yes,Lancaster,West Pleasant Run Road,2600,75146,hospital,http://cmcl.us/,+1 972 230 8888,24/7,,,,,,,,,,,,,,,
,,hospital,Crosbyton Clinic Hospital,yes,Crosbyton,West Main Street,710,79322,hospital,http://www.crosbytonclinichospital.com/,+1 806 675 2382,24/7,,,,,,,,,,,,,,,
,,hospital,Cross Creek Hospital,no,Austin,Cross Park Drive,8402,78754,hospital,https://www.crosscreekhospital.com/,+1 512 549 8021,,,,,Summit Hospital of Central Texas,psychiatry,,,,,,,,,,
,,hospital,Cuero Regional Hospital,yes,Cuero,North Esplanade Street,2550,77954,hospital,https://cueroregionalhospital.org/,+1 361 275 6191,24/7,Cuero Regional Hospital,,,Cuero Community Hospital,,,,,,,,,,,
,,hospital,Culberson Hospital,yes,Van Horn,Eisenhower & FM 2185,,79855,hospital,http://www.culbersonhospital.org/,+1 432 283 2760,24/7,,14,,,,,,,,,,,,,
,,hospital,Cumberland Surgical Hospital,yes,San Antonio,North Loop 1604 West,5330,78249,hospital,http://cumberlandsh.com/,+1 210 877 8000,24/7,,,TX,,,,,,,,,,,US,
,,hospital,Cypress Creek Hospital,no,Houston,Cali Drive,1775-,77090,hospital,https://www.cypresscreekhospital.com/,+1 281 586 7600,24/7,,,,,psychiatry,,,,,,,,,,
,,hospital,Cypress Fairbanks Medical Center,yes,Houston,Steepletop Drive,10655,77065,hospital,https://cyfairhospital.com/,+1 281 890 4285,24/7,HCA,180,,,,,,,,,,,,,
,,hospital,Dallas Medical Center,yes,Dallas,Medical Parkway,7,75234,hospital,https://www.dallasmedcenter.com/,+1 972 888 7000,24/7,,,,RHD Memorial Medical Center,,,,,,,,,,,
,,hospital,Dallas Regional Medical Center,yes,Mesquite,North Galloway Avenue,1101,75149,hospital,https://www.dallasregionalmedicalcenter.com/,+1 214 320 7000,24/7,,,,,,,,,,,,,,,
,,hospital,Dallas VA Medical Center,yes,Dallas,South Lancaster Road,4500,75216,hospital,https://www.northtexas.va.gov/,+1 800 849 3597,24/7,United States Department of Veterans Affairs,,,,,,,,,,,,,,
,,hospital,Dell Children's Medical Center of Central Texas,yes,Austin,Mueller Boulevard,4900,78723,hospital,https://www.dellchildrens.net/,+1 512 324 0000,24/7,Seton Healthcare Family,,,,paediatrics,Q24886189,en:Dell Children's Medical Center of Central Texas,,,,,,,,
,,hospital,Dell Seton Medical Center at The University of Texas,yes,Austin,Red River Street,1500,78701,hospital,https://www.seton.net/locations/dell-seton/,Dell Seton Medical Center at The University of Texas,24/7,Seton Healthcare Family,211,,,,,,,,,,yes,,,
,,hospital,Del Sol Medical Center,yes,El Paso,Gateway Boulevard West,10301,79925,hospital,https://laspalmasdelsolhealthcare.com/location/del-sol-medical-center,+1 915 595 9000,24/7,Las Palmas Del Sol Healthcare,,,,,,,,,,,,,,
,,hospital,Denton State Supported Living Center,no,Denton,State School Road,3980,76210,hospital,https://www.dads.state.tx.us/services/sslc/,+1 940 891 0342,,Texas Department of Aging and Disability Services,,TX,,,,,,,mental_health,group_home,,,,
,,hospital,DePaul Center,no,Waco,Londonderry Drive,301,76712,hospital,https://www.providence.net/locations/providence-depaul-center/,+1 254 776 5970,24/7,Providence Healthcare Network,,,,psychiatry,,,,,,,,,,
,,hospital,DeTar Hospital Navarro,yes,Victoria,East San Antonio Street,506,77901,hospital,https://www.detar.com/,+1 361 575 7441,24/7,DeTar Health System,,,,,,,,,,,,,,
,,hospital,DeTar Hospital North,yes,Victoria,Medical Drive,101,77904,hospital,https://www.detar.com/,+1 361 573 6100,24/7,DeTar Health System,,,,,,,,,,,,,,
,,hospital,Dimmit Regional Hospital,yes,Carrizo Springs,Hospital Drive,704,78834,hospital,http://dimmitregionalhospital.com/,+1 830 876 2424,24/7,,,,,,,,,,,,,,,
,,hospital,Doctors Hospital at Renaissance,yes,Edinburg,South McColl Road,5501,78539,hospital,https://www.dhr-rgv.com/,+1 956 362 8677,24/7,Doctors Hospital at Renaissance,235,,,,,,,,,,,,,
,,hospital,Doctors Hospital of Laredo,yes,Laredo,McPherson Road,10700,78045,hospital,https://www.doctorshosplaredo.com/,+1 956 523 2000,24/7,Universal Health Services,,,,,Q18706226,en:Doctors Hospital of Laredo,,,,,,,,
,,hospital,Driscoll Children's Hospital,yes,Corpus Christi,South Alameda Street,3533,78411,hospital,http://www.driscollchildrens.org/,+1 361 694 5000,24/7,,,,,paediatrics,Q5307798,en:Driscoll Children's Hospital,,,,,,,,
,,hospital,Eastland Memorial Hospital,yes,Eastland,South Daugherty Avenue,304,76448,hospital,http://www.eastlandmemorial.com/,+1 254 629 2601,24/7,,,,,,,,,,,,,,,
,,hospital,East Texas Medical Center - Athens,yes,Athens,South Palestine Street,2000,75751,,https://www.etmc.org/location/etmc-athens/,,,,,TX,,,,,,,,,,,,
,,hospital,East Texas Medical Center - Carthage,yes,Carthage,Cottage Road,409,75633,,https://www.etmc.org/location/etmc-carthage/,,,,,,,,,,,,,,,,,
,,hospital,East Texas Medical Center - Jacksonville,yes,Jacksonville,South Ragsdale Street,501,75766,,https://www.etmc.org/location/etmc-jacksonville/,,,,,TX,,,,,,,,,,,,
,,hospital,Edinburg Regional Medical Center,yes,Edinburg,West Trenton Road,1102,78539,hospital,https://www.edinburgregional.com/,+1 956 388 6000,24/7,Universal Health Services,,,,,,,,,,,,,,
,,hospital,El Campo Memorial Hospital,yes,Angleton,Sandy Corners Road,303,77437,hospital,http://www.ecmh.org/,+1 979 543 6251,24/7,,,,,,,,,,,,,,,
,,hospital,Electra Memorial Hospital,yes,Electra,South Bailey Street,1207,76360,hospital,https://www.electrahospital.com/,+1 940 495 3981,24/7,,,,,,,,,,,,,,,
,,hospital,El Paso Specialty Hospital,yes,El Paso,Curie Drive,1755,79902,hospital,https://elpasospecialtyhospital.com/,+1 915 544 3636,24/7,,,,,,,,,,,,,,,
,,hospital,El Paso State Supported Living Center,no,El Paso,Delta Drive,6700,79905,hospital,https://www.dads.state.tx.us/services/sslc/,+1 915 782 6300,,Texas Department of Aging and Disability Services,,TX,,,,,,,mental_health,group_home,,,,
,,hospital,El paso VA Health Care Clinic,no,El Paso,North Piedras Street,5001,79930,hospital,https://www.elpaso.va.gov/,+1 915 564 6100,,United States Department of Veterans Affairs,,TX,,,,,hospital,,,,,,,
,,hospital,Ennis Regional Medical Center,yes,Ennis,West Lampasas Street,2203,75119,hospital,https://www.ennisregional.com/,+1 972 875 0900,24/7,,,,,,,,,,,,,,,
,,hospital,Faith Community Hospital,yes,Jacksboro,Chisholm Trail,215,76458,hospital,https://www.fchtexas.com/,+1 940 567 6633,24/7,,,,,,,,,,,,,,,
,,hospital,Falls Community Hospital and Clinic,yes,Marlin,Coleman Street,322,76661,hospital,http://www.fallshospital.com/,+1 254 803 3561,24/7,,36,,,,,,,,,,,,,
,,hospital,First Aid,no,,,,,,,,,,,,,,,,yes,,,,,,,
,,hospital,First Texas Hospital,yes,Houston,Louetta Road,9922,77070,hospital,https://firsttexashospitalcyfair.com/,+1 346 206 2300,24/7,,50,,,,,,,,,,,,,
,,hospital,Fisher County Hospital,yes,Rotan,State Highway 70 North,774,79546,hospital,http://www.fishercountyhospital.com/,+1 325 735 2256,24/7,Fisher County Hospital District,14,,,,,,,,,,,,,
,,hospital,Fort Duncan Regional Medical Center,yes,Eagle Pass,N. Foster Maldonado Boulevard,333,78852,hospital,https://www.fortduncanmedicalcenter.com/,+1 830 773 5321,24/7,Universal Health Services,,TX,,,,,,,,,,,,
,,hospital,Foundation Surgical Hospital of El Paso,yes,El Paso,George Dieter Drive,1416,79936,hospital,http://www.foundationhospitals.com/elpaso/,+1 915 598 4240,24/7,Foundation HealthCare,40,,,surgery,,,,,,,,,,
,,hospital,Foundation Surgical Hospital of San Antonio,yes,San Antonio,Huebner Road,9522,78240,hospital,https://www.fshsanantonio.com/,+1 210 478 5400,24/7,,20,,,,,,,,,,,,,
,,hospital,Freestone Medical Center,yes,Fairfield,Newman Street,125,75840,hospital,https://www.freestonemc.com/,+1 903 389 2121,24/7,,,,East Texas Medical Center - Fairfield,,,,,,,,,,,
,,hospital,Frio Regional Hospital,yes,Pearsall,I 35,200,78061,hospital,https://www.frioregionalhospital.com/,+1 830 334 3617,24/7,,,,,,,,,,,,,,,
,,hospital,Glen Rose Medical Center,yes,Glen Rose,Holden Street,1021,76043,hospital,http://www.glenrosemedicalcenter.com/,+1 254 897 2215,24/7,,,,,,,,,,,,,,,
,,hospital,Golden Plains Community Hospital,yes,Borger,Medical Drive,100,79007,hospital,http://www.goldenplains.org/,+1 806 467 5700,24/7,,,TX,,,,,,,,,,,,
,,hospital,Gonzales Healthcare Systems,yes,Gonzales,North Sarah Dewitt Drive,1110,78629,hospital,http://www.gonzaleshealthcare.com/,+1 830 672 7581,24/7,Gonzales Healthcare Systems,,,Memorial Hospital,,,,,,,,,,,
,,hospital,Goodall-Witcher Hospital,yes,Clifton,Posey Avenue,101,76634,hospital,http://www.gwhf.org/,+1 254 675 8322,24/7,,,,,,,,,,,,,,,
,,hospital,Grace Medical Center,no,Lubbock,50th Street,2412,79412,hospital,https://gracehealthsystem.com/locations/grace-medical-center/,+1 806 788 4100,,Grace Health System,,,Highland Medical Center,,,,,,,,,,,
,,hospital,Graham Regional Medical Center,yes,Graham,Montgomery Road,1301,76450,hospital,https://grahamrmc.com/,+1 940 549 3400,24/7,,,,,,,,,,,,,,,
,,hospital,Guadalupe Regional Medical Center,yes,Seguin,East Court Street,1215,78155,hospital,https://www.grmedcenter.com/,+1 830 379 2411,24/7,,,,Guadalupe Valley Hospital,,,,,,,,,,,
,,hospital,Hamilton General Hospital,yes,Hamilton,North Brown Street,400,76531,hospital,http://hamiltonhospital.org/,+1 254 386 1600,24/7,Hamilton Healthcare System,,,,,,,,,,,,,,
,,hospital,Hamlin Memorial Hospital,yes,Hamlin,Northwest 2nd Street,632,79520,hospital,http://www.hamlinhealth.org/,+1 325 576 3646,24/7,,,,,,,,,,,,,,,
,,hospital,Hansford County Hospital,yes,Spearman,Roland Street,707,79081,hospital,https://www.hchd.net/,+1 806 659 2535,24/7,,,,,,,,,,,,,,,
,,hospital,Hardeman County Memorial Hospital,yes,Quanah,Mercer Street,402,79252,hospital,http://www.hcmhosp.com/,+1 940 663 2795,24/7,,,,,,,,,,,,,,,
,,hospital,Harlingen Medical Center,yes,Harlingen,US 77,5501,78550,hospital,https://www.harlingenmedicalcenter.com/,+1 956 365 1000,24/7,Prime Healthcare,,TX,,,,,,,,,,,,
,,hospital,Harris Methodist HEB Hospital,yes,Bedford,Hospital Parkway,1600,76022,hospital,https://www.texashealth.org/heb/,+1 817 848 4000,24/7,Texas Health,,,,,,,,,,,,,,
,,hospital,Harris Methodist Southwest Hospital,yes,Fort Worth,Harris Parkway,6100,76132,hospital,https://www.texashealth.org/southwestfw/,+1 817 433 5000,24/7,Texas Health,,,,,,,,,,,,,,
,,hospital,Haskell Memorial Hospital,yes,Haskell,Avenue N,1,79521,hospital,https://www.haskellmemorialhospital.com/,+1 940 864 2621,24/7,,,,,,,,,,,,,,,
,,hospital,HCA Houston Healthcare Pearland,,,,,,hospital,,,,,,,,,,,,,,,,,,
,,hospital,Healthsouth City View Rehabilitation Hospital,no,Fort Worth,Oakmont Boulevard,6701,76132,hospital,http://www.healthsouthcityview.com/,+1 817 370 4700,,HealthSouth Corporation,,,,,,,,,,,,,,
,,hospital,HEALTHSOUTH Plano Rehabilitation Center,,,,,,hospital,,,,,,,,,,,yes,,,,,,,
,,hospital,Healthsouth Rehabilitation Hospital of Arlington,no,Arlington,Matlock Road,3200,76015,hospital,http://www.healthsoutharlington.com/,+1 817 468 4000,,HealthSouth Corporation,,,,,,,,,,,,,,
,,hospital,HealthSouth Rehabilitation Hospital of Austin,no,Austin,West Ben White Boulevard,330,78704,hospital,http://www.healthsouthaustin.com/,+1 512 730 4800,,HealthSouth Corporation,60,,,,,,,,,,,,,
,,hospital,HealthSouth Rehabilitation Hospital of Fort Worth,no,Fort Worth,West Lancaster Avenue,1212,76102,hospital,http://www.healthsouthfortworth.com/,+1 817 870 2336,,HealthSouth Corporation,,,,,,,,,,,,,,
,,hospital,HealthSouth Rehabilitation Hospital of Humble,no,Houston,McKay Boulevard,19002,77076,hospital,http://www.healthsouthhumble.com/,+1 281 446 6148,,HealthSouth Corporation,68,,,,,,,,,,,,,
,,hospital,HealthSouth Rehabilitation Hospital of Midland/Odessa,no,Midland,Heritage Boulevard,1800,79707,hospital,http://www.healthsouthmidland.com/,+1 432 520 1600,,HealthSouth Corporation,,,,,,,,,,,,,,
,,hospital,Heart Hospital of Austin,,,,,,hospital,,,,,,,,,,,,,,,,,,
,,hospital,Heart Of Texas Memorial Hospital,yes,Brady,Nine Road,2008,76825,hospital,https://www.heartoftexashealthcare.org/,+1 325 597 2901,24/7,,25,,,,,,,,,,,,,
,,hospital,Hemphill County Hospital,yes,Canadian,South 4th Street,1020,79014,hospital,http://hchdst.org/,+1 806 323 6422,24/7,,,,,,,,,,,,,,,
,,hospital,Hendrick Medical Center,yes,Abilene,Pine Street,1900,79601,hospital,http://www.ehendrick.org/,+1 325 670 2000,24/7,,564,TX,,,,,,,,,,,,
,,hospital,Hereford Regional Medical Center,yes,Hereford,West 15th Street,540,79045,hospital,https://dschd.org/,+1 806 364 2141,24/7,Deaf Smith County Hospital District,,,,,,,,,,,,,,
,,hospital,Highlands Rehabilitation Hospital,no,El Paso,George Dieter Drive,1395,79936,hospital,http://www.highlandsrehabilitationhospital.com/,+1 915 298 7222,,,,,,,,,,,,,,,,
,,hospital,Hill Country Memorial Hospital,yes,Fredericksburg,South State Highway 16,1020,78624,hospital,https://hillcountrymemorial.org/,+1 830 997 4353,24/7,,,,,,,,,,,,,,,
,,hospital,Hill Regional Hospital,,,,,,hospital,,,,,,,,,,,,,,,,,,
,,hospital,Houston Behavioral Healthcare Hospital,no,Houston,Gessner Road,2801,77080,hospital,https://www.houstonbehavioralhealth.com/,+1 832 834 7710,,,,,Memorial Behavioral Health Center,psychiatry,,,,,,,,,,
,,hospital,Houston Methodist Hospital,yes,Houston,Fannin Street,6565,77030,hospital,https://www.houstonmethodist.org/,+1 713 790 3311,24/7,,,TX,,,Q7751188,en:Houston Methodist Hospital,,,,,,,,
,,hospital,Houston Methodist Saint Catherine Hospital,no,Katy,South Fry Road,701,77450,hospital,https://www.houstonmethodist.org/locations/long-term-acute-care/st-catherine-katy/,+1 832 522 7550,,Houston Methodist,,,,,,,,,,,,,,
,,hospital,Houston Methodist Saint John Hospital,yes,Nassau Bay,Saint John Drive,18300,77058,hospital,https://www.houstonmethodist.org/locations/st-john/,+1 281 523 2000,24/7,Houston Methodist,,TX,,,,,,,,,,,,
,,hospital,Houston Methodist San Jacinto Alexander Campus,no,Baytown,North Alexander Drive,2610,77520,hospital,https://www.houstonmethodist.org/locations/san-jacinto-baytown/,+1 281 420 8600,,Houston Methodist,,,,,,,,,,,,,,
,,hospital,Houston Methodist San Jacinto Hospital,yes,Baytown,Garth Road,4401,77521,hospital,https://www.houstonmethodist.org/locations/san-jacinto-baytown/,+1 281 420 8600,24/7,Houston Methodist,,,San Jacinto Methodist Hospital,,,,,,,,,,,
,,hospital,Houston Methodist Sugar Land Hospital,yes,Sugar Land,Southwest Freeway,16655,77479,hospital,https://www.houstonmethodist.org/locations/sugar-land/,+1 281 274 7000,24/7,Houston Methodist,,,Methodist Health Center - Sugar Land,,,,,,,,yes,,,
,,hospital,Houston Methodist The Woodlands Hospital,yes,The Woodlands,Interstate 45 South,17201,77385,hospital,https://www.houstonmethodist.org/locations/the-woodlands/,+1 936 270 2000,24/7,Houston Methodist,,TX,,,,,,,,,,,,
,,hospital,Houston Methodist West Hospital,yes,Houston,Katy Freeway,18500,77094,hospital,https://www.houstonmethodist.org/locations/katy-west/,+1 832 522 5522,24/7,Houston Methodist,,,,,,,,,,,,,,
,,hospital,Houston Methodist Willowbrook Hospital,yes,Houston,State Highway 249,18220,77070,hospital,https://www.houstonmethodist.org/locations/willowbrook/,+1 281 737 2500,24/7,Houston Methodist,312,,,,,,,,,,,,,
,,hospital,Houston Northwest Medical Center,yes,Houston,Cypress Creek Parkway,710,77090,hospital,https://hnmc.com/,+1 281 440 1000,24/7,HCA,,,,,,,,,,,,,,
,,hospital,Houston Physicians' Hospital,yes,Webster,North Texas Avenue,333,77598,hospital,https://www.houstonphysicianshospital.com/,+1 281 557 5620,24/7,,21,TX,,surgery,,,,,,,,,,
,,hospital,Humble Surgical Hospital,yes,Humble,FM 1960 East Bypass,1475,77338,hospital,http://humblesurgical.com/,+1 281 964 2100,24/7,,5,,,surgery,,,,,,,,,,
,,hospital,Hunt Regional Medical Center,yes,Greenville,Joe Ramsey Boulevard,4215,75401,hospital,https://www.huntregional.org/,+1 903 408 5000,24/7,Hunt Regional Healthcare,,TX,,,Q5943983,en:Hunt Regional Medical Center,,,,,,,,
,,hospital,Huntsville Memorial Hospital,yes,Huntsville,Memorial Hospital Drive,110,77340,hospital,https://www.huntsvillememorial.com/,+1 936 291 3411,24/7,,,,,,,,,,,,,,,
,,hospital,Iraan General Hospital District,yes,Iraan,Highway 349 North,600,79744,hospital,http://www.igh-hospital.com/,+1 432 639 2575,24/7,,,,,,,,,,,,,,,
,,hospital,Jackson County Hospital,yes,Edna,South Wells Street,1013,77957,hospital,http://www.jchd.org/,+1 361 782 7800,24/7,,,,,,,,,,,,,,,
,,hospital,Jennie Sealy Hospital,no,Galveston,Texas Avenue,712,77550,hospital,https://www.utmbhealth.com/locations/hospitals-campuses/galveston-campus/hospitals-services/jennie-sealy-hospital,+1 409 772 1011,24/7,The University of Texas Medical Branch,,TX,,,,,hospital,,,,,,,
,,hospital,John Peter Smith Hospital,yes,Fort Worth,South Main Street,1500,76104,hospital,https://www.jpshealthnet.org/,+1 817 702 3431,24/7,JPS Health Network,,,,,Q14710539,en:John Peter Smith Hospital,,,,,,JPS Hospital,,
,,hospital,John Sealy Hospital,yes,Galveston,8th Street,301,77555,hospital,https://www.utmbhealth.com/locations/hospitals-campuses/galveston-campus/hospitals-services/john-sealy-hospital,+1 409 772 1011,24/7,,,,,,,,hospital,,,,,,,
,,hospital,Kell West Regional Hospital,yes,Wichita Falls,Kell Boulevard,5420,76310,hospital,https://www.kellwest.com/,+1 940 692 5888,24/7,,,,,,,,,KWRH,,,,,,
,,hospital,Kerrville State Hospital,no,Kerrville,Thompson Drive,721,78028,hospital,https://www.dshs.texas.gov/mhhospitals/KerrvilleSH/,+1 830 896 2211,,,,,,,Q42417710,en:Kerrville State Hospital,,,,,,,,
,,hospital,Kerrville VA Medical Center,no,Kerrville,Memorial Boulevard,3600,78028,hospital,https://www.southtexas.va.gov/locations/kerrville_va_hospital.asp,+1 866 487 1653,"Mo-Fr 08:00-16:30; PH off",United States Department of Veterans Affairs,,,,,,,,,,,,,,
,,hospital,Kimble Hospital,yes,Junction,Reid Road,349,76849,hospital,http://www.kimblehospital.org/,325-446-3321,24/7,,15,TX,,,,,,,,,,,,
,,hospital,Kindred Hospital (Bay Area),no,Pasadena,East Sam Houston Parkway South,4801,77505,hospital,https://www.kindredhealthcare.com/locations/transitional-care-hospitals/kindred-hospital-bay-area,+1 281 991 5463,,Kindred Healthcare,74,,,,,,,,,,,,,
,,hospital,Kindred Hospital El Paso,no,El Paso,Curie Drive,1740,79902,hospital,https://www.kindredhealthcare.com/locations/transitional-care-hospitals/kindred-hospital-el-paso,+1 915 351 9044,,Kindred Healthcare,72,,Rio Vista Rehabilitation Hospital,,,,,,,,,,,
,,hospital,Kindred Hospital Houston Medical Center,no,Houston,Main Street,6441,77030,hospital,https://www.kindredhealthcare.com/locations/transitional-care-hospitals/kindred-hospital-houston-medical-center,+1 713 790 0500,,Kindred Healthcare,,,,,,,hospital,,,,,,,
,,hospital,Kindred Hospital (Houston Northwest),no,Houston,Fallbrook Drive,11297,77065,hospital,https://www.kindredhealthcare.com/locations/transitional-care-hospitals/kindred-hospital-houston-northwest,+1 281 517 1000,,Kindred Healthcare,84,,Vencor Hospital Houston,,,,,,,,,,,
,,hospital,Kindred Hospital - San Antonio,no,San Antonio,Medical Drive,3636,78229,hospital,https://www.kindredhealthcare.com/locations/transitional-care-hospitals/kindred-hospital-san-antonio,+1 210 616 0616,,Kindred Healthcare,59,,,,,,,,,,,,,
,,hospital,Kindred Hospital Spring,no,Houston,Hollow Tree Lane,205,77090,hospital,https://www.kindredhealthcare.com/locations/transitional-care-hospitals/kindred-hospital-spring,+1 832 249 2700,,Kindred Healthcare,115,,Triumph Hospital Northwest,,,,,,,,,,,
,,hospital,Kindred Hospital Sugar Land,no,Sugar Land,First Colony Boulevard,1550,77479,hospital,https://www.kindredhealthcare.com/locations/transitional-care-hospitals/kindred-hospital-sugar-land,+1 281 275 6000,,Kindred Healthcare,105,,Triumph Hospitals Southwest,,,,,,,,,,,
,,hospital,Kindred Hospital - Tarrant County,no,Fort Worth,Oakmont Boulevard,7800,76132,hospital,https://www.kindredhealthcare.com/locations/transitional-care-hospitals/kindred-hospital-tarrant-county-fort-worth-southwest,+1 817 346 0094,,Kindred Healthcare,,,,,,,,,,,,,,
,,hospital,Kindred Hospital The Heights,no,Houston,West 26th Street,1800,77008,hospital,https://www.kindredhealthcare.com/locations/transitional-care-hospitals/kindred-hospital-the-heights,+1 832 673 4200,,Kindred Healthcare,68,TX,,,,,,,,,,,,
,,hospital,Kindred Rehabilitation Hospital,no,Arlington,W Randol Mill Rd,2601,76012,,http://www.khrehabarlington.com/,817-804-4400,,,,,,,,,,,,,,,,
,,hospital,Kindred Rehabilitation Hospital Clear Lake,no,Webster,East Medical Center Boulevard,655,77598,hospital,https://www.kindredhealthcare.com/locations/inpatient-rehabilitation-hospitals/kindred-rehabilitation-hospital-clear-lake,+1 281 286 1500,,Kindred Healthcare,,,,,,,,,,,,,,
,,hospital,Kingwood Pines Hospital,no,Kingwood,Ladbrook Drive,2001,77339,hospital,https://www.kingwoodpines.com/,+1 281 404 1001,24/7,,,,,psychiatry,,,,,,,,,,
,,hospital,Knapp Medical Center,yes,Weslaco,East 8th Street,1401,78596,hospital,https://www.knappmed.org/,+1 956 968 8567,24/7,Prime Healthcare,,,,,,,,,,,,,,
,,hospital,Knox County Hospital,yes,Knox City,Southeast 5th Street,701,79529,hospital,,+1 940 657 3535,24/7,,28,,,,,,,,,,,,,
,,hospital,Lake Granbury Medical Center,yes,Granbury,Paluxy Road,1310,76048,hospital,https://www.lakegranburymedicalcenter.com/,+1 817 573 2273,24/7,,73,,,,,,,,,,,,,
,,hospital,Lamb Healthcare Center,yes,Littlefield,South Sunset Avenue,1500,79339,hospital,http://www.lambhc.org/,+1 806 385 6411,24/7,,,,,,,,,,,,,,,
,,hospital,Laredo Medical Center,yes,Loredo,East Saunders Street,1700,78041,hospital,https://www.laredomedical.com/,+1 956 796 5000,24/7,,326,,,,,,,,,,,,,
,,hospital,Las Palmas Medical Center,yes,El Paso,North Oregon Street,2001,79902,hospital,https://www.thehospitalsofprovidence.com/our-locations/memorial-campus,+1 915 577 6011,24/7,The Hospitals of Providence,,,,,,,,,,,,,,
,,hospital,Laurel Ridge,no,San Antonio,Corporate Woods,17720,78259,hospital,https://laurelridgetc.com/,+1 210 491 9400,,,,,,psychiatry,,,,,,,,,,
,,hospital,Lavaca Medical Center,yes,Hallettsville,North Texana Street,1400,77964,hospital,http://www.lavacamedcen.com/,+1 361 798 3671,24/7,,,,,,,,,,,,,,,
,,hospital,Liberty - Dayton Regional Medical Center,yes,Liberty,North Travis Street,1353,77575,hospital,,+1 936 336 7316,24/7,,,,Kersting Hospital,,,,,,,,,,,
,,hospital,Lifecare Hospitals of Fort Worth,no,Fort Worth,Overton Ridge Boulevard,6201,76132,hospital,https://www.lifecarehealthpartners.com/region/fortworth,+1 817 370 6078,,LifeCare Health Partners,,,,,,,,,,,,,,
,,hospital,LifeCare Hospitals of San Antonio,no,San Antonio,Floyd Curl Drive,8902,78240,hospital,https://www.lifecarehealthpartners.com/region/sanantonio,+1 210 690 7000,,Lifecare Health Partners,,,,,,,,,,,,,,
,,hospital,Lillian M. Hudspeth Memorial Hospital,yes,Sonora,,,76950,hospital,http://www.sonora-hospital.org/,+1 325 387 2521,24/7,,,,,,,,,,,,,,,
,,hospital,Limestone Medical Center,yes,Groesbeck,McClintic Drive,701,76642,hospital,http://www.groesbeckhospital.com/,+1 254 729 3281,24/7,,20,,,,,,,,,,,,,
,,hospital,Little River Healthcare – Rockdale Hospital,yes,Rockdale,Brazos Avenue,1700,76520,hospital,http://lrhealthcare.com/locations/rockdale-hospital,+1 512 446 4500,24/7,Little River Healthcare,,,Richards Memorial Hospital,,,,,,,,,,,
,,hospital,Longview Regional Medical Center,yes,Longview,North Fourth Street,2901,75605,hospital,https://www.longviewregional.com/,+1 903 758 1818,24/7,,,TX,,,,,,,,,,,,
,,hospital,Lubbock Heart & Surgical Hospital,yes,Lubbock,North Loop 289,4810,79416,hospital,https://lubbockheart.com/home/,+1 806 687 7777,24/7,Lubbock Heart Hospital,,TX,,,,,,,,,,,,
,,hospital,Lubbock State Supported Living Center,no,Lubbock,North University Avenue,3401,79415,hospital,https://www.dads.state.tx.us/services/SSLC,+1 806 763 7041,,Texas Department of Aging and Disability Services,,TX,,,,,,,mental_health,group_home,,,,
,,hospital,Lufkin State Supported Living Center,no,Pollok,N US Highway 69,6844,76969,hospital,https://www.dads.state.tx.us/services/SSLC,+1 936 643 3353,,Texas Department of Aging and Disability Services,,TX,,,,,,,mental_health,group_home,,,,
,,hospital,Lyndon B. Johnson General Hospital,yes,Houston,Kelley Street,5656,77026,hospital,https://www.harrishealth.org/locations-hh/Pages/lbj.aspx,+1 713 566 5100,24/7,Harris Health,207,,,,,,,,,,,,,
,,hospital,Lynn County Hospital District,yes,Tahoka,Lockwood Street,2600,79373,hospital,http://lchdhealthcare.org/,+1 806 998 4533,24/7,Lynn County Hospital District,24,,,,,,,LCHD,,,,,,
,,hospital,Magnolia Behavioral Hospital,no,Longview,Bermuda Lane,22,75605,hospital,https://magnoliabehavioralhospital.com/,+1 866 977 3456,,"Oglethorpe, Inc.",,TX,Behavioral Hospital of Longview,psychiatry,,,,,,,,,,
,,hospital,Mainland Medical Center,yes,Texas City,Emmett F. Lowry Expressway,6801,77591,hospital,https://mainlandmedical.com/,+1 409 938 5000,24/7,HCA,,,Galveston County Memorial Hospital,,,,,,,,,,,
,,hospital,Martin County Hospital,yes,Stanton,East Interstate 20,600,79782,hospital,https://www.martincountyhospital.org/,+1 432 607 3200,24/7,Martin County Hospital District,18,,,,,,,,,,,,,
,,hospital,Matagorda Regional Medical Center,yes,Bay City,7th Street,104,77465,hospital,https://www.matagordaregional.org/,+1 979 245 6383,24/7,,,,,,,,,,,,,,,
,,hospital,Mayhill Hospital,no,Denton,South Mayhill Road,2809,76208,hospital,https://www.mayhillhospital.com/,+1 940 239 3000,,,,,,psychiatry,,,hospital,,,,,,,
,,hospital,Mays Cancer Center,no,San Antonio,Wurzbach Road,7979,78229,hospital,https://www.uthscsa.edu/patient-care/cancer-center,+1 210 450 1000,,UT Health San Antonio,,,UT Medicine Cancer Therapy Research Center,oncology,Q5031427,en:UT Health San Antonio Cancer Center,,CTRC,,,,,,
,,hospital,McAllen Heart Hospital,yes,McAllen,South D Street,1900,78503,hospital,https://www.mcallenhearthospital.com/,+1 956 994 2000,24/7,Universal Health Services,,,,,Q18706233,en:McAllen Heart Hospital,,,,,,,,
,,hospital,McAllen Medical Center,yes,McAllen,West Expressway 83,301,78503,hospital,https://www.mcallenmedicalcenter.com/,+1 956 632 4000,24/7,Universal Health Services,,,,,Q18706234,en:McAllen Medical Center,,,,,,,,
,,hospital,McCamey County Hospital District,yes,McCamey,South Highway 305,2500,79752,hospital,http://www.mccameyhospitaldistrict.org/,+1 432 652 8626,24/7,McCamey County Hospital District,14,,,,,,,,,,,,,
,,hospital,M. D. Anderson Cancer Center,,,,,,hospital,,,,,,,,,,,,,,,,,,
,,hospital,Medical Arts Hospital,yes,Lamesa,North Bryan Avenue,2200,79331,hospital,http://medicalartshospital.org/,+1 806 872 2183,24/7,,,,,,,,,,,,,,,
,,hospital,Medical Center Hospital,yes,Odessa,West 4th Street,500,79761,hospital,http://mchodessa.com/,+1 432 640 6000,24/7,Medical Center Health System,,,,,,,,,,,,,,
,,hospital,Medical City Alliance,yes,Fort Worth,North Tarrant Parkway,3101,76177,hospital,https://medicalcityalliance.com/,+1 817 639 1000,24/7,HCA,75,,,,,,,,,,,,,
,,hospital,Medical City Arlington,yes,Arlington,Matlock Road,3301,76015,hospital,https://medicalcityarlington.com/,+1 682 509 6200,24/7,HCA,,,Medical Center of Arlington,,,,,,,,,,,
,,hospital,Medical City Dallas,yes,Dallas,Forest Lane,7777,75230,hospital,https://medicalcityhospital.com/,+1 972 566 7000,24/7,HCA,,TX,,,Q6806294,en:Medical City Dallas Hospital,,,,,,,,
,,hospital,Medical City Denton,yes,Denton,South Interstate 35,3535,76210,hospital,https://medicalcitydenton.com/,+1 940 384 3535,24/7,HCA,,,,,Q5259623,en:Denton Regional Medical Center,,,,,,,,
,,hospital,Medical City Fort Worth,yes,Fort Worth,8th Avenue,900,76104,hospital,https://medicalcityfortworth.com/,+1 817 877 5292,24/7,HCA,,,Plaza Medical Center of Fort Worth,,,,,,,,,,,
,,hospital,Medical City Green Oaks Hospital,no,Dallas,Clodus Fields Drive,7808,75251,hospital,https://medicalcitygreenoaks.com/,+1 972 991 9504,,HCA,,,,psychiatry,,,,,,,,,,
,,hospital,Medical City Las Colinas,yes,Irving,North MacArthur Boulevard,6800,75039,hospital,https://medicalcitylascolinas.com/,+1 972 969 2000,24/7,HCA,,,Las Colinas Medical Center,,,,,,,,,,,
,,hospital,Medical City Lewisville,yes,Lewisville,West Main Street,500,75057,hospital,https://medicalcitylewisville.com/,+1 972 420 1000,24/7,HCA,,,Medical Center of Lewisville,,,,,,,,,,,
,,hospital,Medical City McKinney,yes,McKinney,Medical Center Drive,4500,75609,hospital,https://medicalcitymckinney.com/,+1 972 547 8000,24/7,HCA,260,,McKinney Medical Center,,,,,,,,,,,
,,hospital,Medical City North Hills,yes,North Richland Hills,Booth Calloway Road,4401,76180,hospital,https://medicalcitynorthhills.com/,+1 817 255 1000,24/7,HCA,,,North Hills Hospital,,,,,,,,,,,
,,hospital,Medical City Plano,yes,Plano,West 15th Street,3901,75075,hospital,https://medicalcityplano.com/,+1 972 596 6800,24/7,HCA,,,Medical Center of Plano,,,,,,,,,,,
,,hospital,Medical City Weatherford,yes,Weatherford,East Anderson Street,713,76086,hospital,https://medicalcityweatherford.com/,+1 682 582 1000,24/7,HCA,,,Campbell Health System,,,,,,,,,,,
,,hospital,Medina Regional Hospital,yes,Hondo,Avenue E,3100,78861,hospital,https://www.medinahospital.net/,+1 830 426 7700,24/7,Medina Healthcare System,,,,,,,,,,,,,,
,,hospital,Memorial Herman CCC,,,,,,hospital,,,,,,,,,,,,,,,,,,
,,hospital,Memorial Hermann Cypress Hospital,yes,Cypress,Northwest Freeway,27800,77433,hospital,http://www.memorialhermann.org/locations/cypress/,+1 346 231 4000,24/7,Memorial Hermann,,,,,,,,,,,,,,
,,hospital,Memorial Hermann Greater Heights Hospital,yes,Houston,North Loop West Frontage Road,1635,77008,hospital,http://www.memorialhermann.org/locations/greater-heights/,+1 713 867 2000,24/7,Memorial Hermann,260,TX,,,,,,,,,,,,
,,hospital,Memorial Hermann Katy Hospital,yes,Katy,Katy Freeway,23900,77494,hospital,http://www.memorialhermann.org/locations/katy/,+1 281 644 7000,24/7,Memorial Hermann,,,,,,,,,,,,,,
,,hospital,Memorial Hermann Memorial City Medical Center,yes,Houston,Gessner Road,921,77024,hospital,http://www.memorialhermann.org/locations/memorial-city/,+1 713 242 3000,24/7,Memorial Hermann,,,,,Q16895024,en:Memorial Hermann Memorial City Medical Center,,,,,yes,,,
,,hospital,Memorial Hermann Northeast Hospital,yes,Humble,Memorial North,18951,77338,hospital,http://www.memorialhermann.org/locations/northeast/,+1-281-540-7700,24/7,Memorial Hermann,255,TX,,"general;cardiology;radiology;neurology;trauma;paediatrics;internal;orthopaedics;surgery;gynaecology;physiotherapy",,,,,,,,,,
,,hospital,Memorial Hermann Pearland,,,,,,hospital,,,,,,,,,,,,,,,,,,
,,hospital,Memorial Hermann Southeast Hospital,yes,Houston,Astoria Boulevard,11800,77089,hospital,http://www.memorialhermann.org/locations/southeast/,+1 281 929 6100,24/7,Memorial Hermann,293,,,,,,,,,,,,,
,,hospital,Memorial Hermann Southwest Hospital,yes,Houston,Beechnut Street,7600,77074,hospital,http://www.memorialhermann.org/locations/southwest/,+1 713 456 5000,24/7,Memorial Hermann,547,,,,Q16895039,en:Memorial Hermann Southwest Hospital,,,,,,,,
,,hospital,Memorial Hermann Sugar Land Hospital,yes,Sugar Land,West Grand Parkway South,17500,77479,hospital,http://www.memorialhermann.org/locations/sugar-land/,+1 281 725 5000,24/7,Memorial Hermann,149,,,,,,,,,,,,,
,,hospital,Memorial Hermann Surgical Hospital First Colony,yes,Sugar Land,Southwest Freeway,16906,77479,hospital,http://memorialhermannfirstcolony.com/,+1 281 243 1000,24/7,,6,,Sugar Land Surgical Hospital,surgery,,,,,,,,,,
,,hospital,Memorial Hermann Surgical Hospital Kingwood,yes,Kingwood,Kingwood Medical Drive,300,77339,hospital,http://memorialhermannkingwood.com/,+1 281 312 4000,24/7,,10,,,,,,,,,,,,,
,,hospital,Memorial Hermann-Texas Medical Center,yes,Houston,Fannin Street,6411,77030,hospital,http://www.memorialhermann.org/locations/texas-medical-center/,+1 713 704 4000,24/7,,,,,,Q6815447,en:Memorial Hermann–Texas Medical Center,hospital,,,,,,,
,,hospital,Memorial Hermann The Woodlands Medical Center,yes,The Woodlands,Pinecroft Drive,9250,77380,hospital,http://www.memorialhermann.org/locations/the-woodlands/,+1 713 897 2300,24/7,Memorial Hermann,,,,,,,,,,,,,,
,,hospital,Memorial Hermann Tomball Hospital,yes,Tomball,Tomball Parkway,24429,77375,hospital,http://www.memorialhermann.org/tomball/,+1 281 516 0911,24/7,Memorial Hermann,8,,,,,,,,,,,,,
,,hospital,Memorial Hospital,yes,Dumas,East 2nd Street,224,79029,hospital,http://www.mchd.net/,+1 806 935 7171,24/7,Moore County Hospital District,25,,,,,,,,,,,,,
,,hospital,Memorial Hospital,yes,Seminole,Northwest 8th Street,209,79360,hospital,https://seminolehospitaldistrict.com/,+1 432 758 5811,24/7,Seminole Hospital District,,,,,,,,,,,,,,
,,hospital,Memorial Medical Center,yes,Port Lavaca,North Virginia Street,815,77979,hospital,http://www.mmcportlavaca.com/,+1 361 552 6713,24/7,,,,,,,,,,,,,,,
,,hospital,Methodist Campus for Continuing Care,yes,Richardson,West Campbell Road,401,75080,hospital,https://www.methodisthealthsystem.org/our-locations/methodist-campus-for-continuing-care/,+1 469 204 1000,24/7,Methodist Health System,200,,Methodist - Richardson Medical Center,,,,,,,,,,,
,,hospital,Methodist Charlton Medical Center,yes,Dallas,West Wheatland Road,3500,75237,hospital,https://www.methodisthealthsystem.org/methodist-charlton-medical-center/,+1 214 947 7777,24/7,Methodist Health System,,,Margaret Jonsson Charlton Methodist Hospital,,,,,,,,,,,
,,hospital,Methodist Dallas Medical Center,yes,Dallas,North Beckley Avenue,1441,75203,hospital,https://www.methodisthealthsystem.org/methodist-dallas-medical-center/,+1 214 947 8181,24/7,Methodist Health System,585,TX,,,,,,,,,yes,,,
,,hospital,Methodist Hospital,yes,San Antonio,Floyd Curl Drive,7700,78229,hospital,https://sahealth.com/locations/methodisthospital/,+1 210 575 4000,24/7,HCA,,,,,,,,,,,,,,
,,hospital,Methodist Hospital for Surgery,yes,Addison,Dallas Parkway,17101,75001,hospital,https://methodisthospitalforsurgery.com/,+1 469 248 3900,24/7,,,,,,,,hospital,,,,,,,
,,hospital,Methodist Hospital South,yes,Jourdanton,Highway 97 East,1905,78026,hospital,https://sahealth.com/locations/methodisthospitalsouth/,+1 830 769 3515,24/7,Methodist Healthcare,,,South Texas Regional Medical Center,,,,,,,,,,,
,,hospital,Methodist Mansfield Medical Center,yes,Mansfield,East Broad Street,2700,76063,hospital,https://www.methodisthealthsystem.org/methodist-mansfield-medical-center/,+1 682 242 2000,24/7,Methodist Health System,,TX,,,,,,,,,,,,
,,hospital,Methodist McKinney Hospital,yes,McKinney,West Eldorado Parkway,8000,75070,hospital,https://methodistmckinneyhospital.com/,+1 972 569 2700,24/7,,21,,,,,,,,,,,,,
,,hospital,Methodist Rehabilitation Hospital,no,Dallas,West Wheatland Road,3020,75237,hospital,http://www.methodist-rehab.com/,+1 972 708 8600,,,,,,,,,,,,,,,,
,,hospital,Methodist Richardson Medical Center,yes,Richardson,President George Bush Highway,2831,75082,hospital,https://www.methodisthealthsystem.org/methodist-richardson-medical-center/,+1 469-204-1000,24/7,Methodist Health System,,,,,,,,,,,,,,
,,hospital,Methodist Specialty and Transplant Hospital,yes,San Antonio,Floyd Curl Drive,8026,78229,hospital,https://sahealth.com/locations/methodistspecialty/,+1 210 575 8110,24/7,HCA,,,,,,,,,,,,,,
,,hospital,Methodist Stone Oak Hospital,yes,San Antonio,East Sonterra Boulevard,1139,78258,hospital,https://sahealth.com/locations/methodiststoneoak/,+1 210 638 2000,24/7,HCA,,,,,,,,,,,,,,
,,hospital,Methodist Surgery Ambulatory Hospital,yes,San Antonio,Huebner Road,9150,78240,hospital,https://sahealth.com/locations/methodistambulatory/,+1 210 575 5000,24/7,HCA,31,,,,,,,,,,,,,
,,hospital,Methodist Texsan Heart Hospital,yes,San Antonio,Interstate Highway 10,6700,78201,hospital,https://sahealth.com/locations/methodisttexsan/,+1 210 736 6700,24/7,HCA,,,,,,,,,,,,,,
,,hospital,Metroplex Health System,yes,Killeen,South Clear Creek Road,2201,76549,hospital,http://www.mplex.org/,+1 254 526 7523,24/7,Adventist Health System,245,,,,,,,,,,,,,
,,hospital,Metropolitan Methodist Emergency Center at the Quarry,,,,,,hospital,,,,,,,,,,,,,,,,,,
,,hospital,Metropolitan Methodist Hospital,yes,San Antonio,McCullough Avenue,1310,78212,hospital,https://sahealth.com/locations/metropolitanmethodist/,+1 210 757 2200,24/7,HCA,,,,,,,,,,,,,,
,,hospital,Mexia State Supported Living Center,no,Mexia,Chapel Drive,540,76667,hospital,https://www.dads.state.tx.us/services/sslc/,,,Texas Department of Aging and Disability Services,,TX,,,,,,,mental_health,group_home,,,,
,,hospital,Michael E. DeBakey VA Medical Center,yes,Houston,Holcombe Boulevard,2002,77030,hospital,https://www.houston.va.gov/,+1 713 791 1414,24/7,United States Department of Veterans Affairs,,,,,Q6830017,en:Michael E. DeBakey Veterans Affairs Medical Center in Houston,,,,,,,,private
,,hospital,Mid Jefferson Extended Care Hospital,no,Nederland,Highway 365,2600,77627,hospital,http://www.midjeffextendedcare.com/,+1 409 726 8700,,Mid Jefferson Hospital,,,,,,,,,,,,,,
,,hospital,Midland Memorial Hospital,yes,Midland,Rosalind Redfern Grover Parkway,400,79703,,http://www.midland-memorial.com/,+1 432 221 1111,24/7,,,,,,,,,,,,,,,
,,hospital,Midland Memorial Hospital West Campus,no,Midland,Andrews Highway,4214,79703,,http://www.midland-memorial.com/,,,,,,,,,,,,,,,,,
,,hospital,Millwood Hospital,no,Arlington,North Cooper Street,1011,76011,hospital,https://www.millwoodhospital.com/,+1 817 261 3121,,,128,,,psychiatry,,,,,,,,,,
,,hospital,Mission Regional Medical Center,yes,Mission,South Bryan Road,900,78572,hospital,https://www.missionrmc.org/,+1 956 323 9000,24/7,Prime Healthcare,,,,,,,,,,,,,,
,,hospital,Mission Trail Baptist Hospital,yes,San Antonio,Research Plaza,3333,78235,hospital,https://www.baptisthealthsystem.com/our-locations/our-locations-detail/mission-trail-baptist-hospital,+1 210 297 3000,24/7,TH Medical,,,,,,,,,,,,,,
,,hospital,Mitchell County Hospital,yes,Colorado City,West Interstate 20,997,79512,hospital,https://www.mitchellcountyhospital.com/,+1 325 728 3431,24/7,,,,,,,,,,,,,,,
,,hospital,Muenster Memorial Hospital,yes,Muenster,North Maple Street,605,76252,hospital,http://www.muensterhospital.com/,+1 940 759 2271,24/7,,,,,,,,,,,,,,,
,,hospital,Muleshoe Area Medical Center,yes,Muleshoe,South 1st Street,708,79347,hospital,https://www.muleshoehospital.com/,+1 806 272 4524,24/7,,,,,,,,,,,,,,,
,,hospital,Nacogdoches Medical Center,yes,Nacogdoches,Northeast Stallings Drive,4920,75965,hospital,https://www.nacmedicalcenter.com/,+1 866 697 5864,24/7,TH Medical,,,,,,,,,,,,,,
,,hospital,Nacogdoches Memorial Hospital,yes,Nacogdoches,North Mound Street,1204,75961,hospital,https://www.nacmem.org/,+1 936 564 4611,24/7,Nacogdoches Memorial Health,,TX,,,,,,,,,,,,
,,hospital,Navarro Regional Hospital,yes,Corsicana,West Highway 22,3201,75110,hospital,https://www.navarrohospital.com/,+1 903 654 6800,24/7,,,,,,,,,,,,,,,
,,hospital,Nexus Children's Hospital,no,Houston,Woodland Park Drive,2929,77082,hospital,https://www.nhsltd.com/services/childrens-hospital/,+1 714 289 2400,,Nexus Health Systems,40,,Healthbridge Childrens's Hospital Of Houston,paediatrics,,,,,,,,,,
,,hospital,Nix Medical Center,yes,San Antonio,Navarro Street,414,78205,hospital,https://www.nixhealth.com/Locations/Nix-Medical-Center.aspx,+1 210 271 1800,24/7,Nix Health Care System,,,,,,,hospital,,,,,,,
,,hospital,Nocona General Hospital,yes,Nocona,Park Road,100,76255,hospital,http://noconageneral.com/,+1 940 825 3235,24/7,,,,,,,,,NGH,,,,,,
,,hospital,North Central Baptist Hospital,yes,San Antonio,Madison Oak Drive,520,78258,hospital,https://www.baptisthealthsystem.com/our-locations/north-central-baptist-hospital,+1 210 297 4000,24/7,TH Medical,,,,,,,,,,,,,,
,,hospital,North Cypress Medical Center,yes,Cypress,Northwest Freeway,21214,77429,hospital,https://www.ncmc-hospital.com/,+1 832 912 3500,24/7,,139,,,,,,,,,,,,,
,,hospital,Northeast Baptist Hospital,yes,San Antonio,Village Drive,8811,78217,hospital,https://www.baptisthealthsystem.com/our-locations/northeast-baptist-hospital,+1 210 297 2000,24/7,,,,,,,,,,,,,,,
,,hospital,Northeast Methodist Hospital,yes,Live Oak,Judson Road,12412,78233,hospital,https://sahealth.com/locations/northeastmethodist/,+1 210 757 7000,24/7,HCA,,,,,,,,,,,,,,
,,hospital,North Runnels Hospital,yes,Winters,TX 153,7821,79467,hospital,,+1 325 754 4553,24/7,,25,,,,,,,NRH,,,,,,
,,hospital,North Texas Medical Center,yes,Gainesville,Hospital Boulevard,1900,76240,hospital,https://www.ntmconline.net/,+1 940 665 1751,24/7,,,,,,,,,,,,,,,
,,hospital,North Texas State Hospital Vernon Campus,no,Vernon,College Drive,4730,76384,,https://dshs.texas.gov/mhhospitals/default.shtm,+1 940 552 9901,,Texas Department of State Health Services,,TX,,,,,,,,,,,US,
,,hospital,North Texas State Hospital Wichita Falls Campus,no,Wichita Falls,Kemp Boulevard,6515,76308,,https://dshs.texas.gov/mhhospitals/default.shtm,,,Texas Department of State Health Services,,TX,,,,,,,,,,,US,
,,hospital,North West Texas Healthcare System,yes,Amarillo,South Coulter Street,1501,79106,hospital,https://www.nwths.com/,+1 806 354 1000,24/7,Northwest Texas Healthcare System,,TX,,,,,,,,,,,,
,,hospital,Northwest Texas Physician Group,no,Canyon,"23rd Street, Suite C",301,79015,,,8064525522,,,,TX,,,,,,,,,,,,
,,hospital,OakBend Medical Center,yes,Richmond,Jackson Street,1705,77469,hospital,https://www.oakbendmedcenter.org/,+1 281 341 3000,24/7,,,,,,,,,,,,,,,
,,hospital,Oceans Behavioral Hospital Permian Basin,no,Midland,South FM 1788,3300,79706,hospital,https://oceanshealthcare.com/permian-basin,+1 432 561 5915,,Oceans Healthcare,,,,psychiatry,,,,,,,,,,
,,hospital,Ochiltree General Hospital,yes,Perryton,South Garrett Drive,3101,79070,hospital,https://www.ochiltreehospital.com/,+1 806 435 3606,24/7,,,,,,,,,,,,,,,
,,hospital,Odessa Regional Medical Center,yes,Odessa,East 6th Street,520,79761,hospital,https://odessaregionalmedicalcenter.org/,+1 432 582 8000,24/7,Steward Health Care,,,,,,,,,,,,,,
,,hospital,Odessa Regional Medical Center South Campus,no,,,,,hospital,,,,,,,,,,,,,,,,,,
,,hospital,Olin E. Teague Veterans' Medical Center,yes,Temple,Veterans Memorial Drive,1901,76504,hospital,https://www.centraltexas.va.gov/,+1 254 778 4811,24/7,United States Department of Veterans Affairs,,,,,,,,,,,,Central Texas Veterans Health Care System,,
,,hospital,Olney Hamilton Hospital,yes,Olney,West Hamilton Street,901,76374,hospital,https://olneyhamiltonhospital.com/,+1 940 564 5521,24/7,,,,,,,,,,,,,,,
,,hospital,Otto Kaiser Memorial Hospital,yes,Kenedy,South US Highway 181,3349,78119,hospital,http://www.okmh.org/,+1 830 583 3401,24/7,,,,,,,,,,,,,,,
,,hospital,Our Children's House,no,Dallas,Empire Central,1340,75247,hospital,https://www.childrens.com/specialties-services/och,+1 214 867 6700,,Children's Health,,,,paediatrics,,,,,,,,,,
,,hospital,Palacios Community Medical Center,yes,Palacios,Green Avenue,311,77465,hospital,http://www.palacioshospital.net/,+1 361 972 2511,24/7,,,,Palacios Community Hospital,,,,,,,,,,,
,,hospital,Palestine Regional Medical Center,yes,Palestine,South Loop 256,2900,75801,hospital,https://www.palestineregional.com/,+1 903 731 1000,24/7,,,,,,,,,,,,,,,
,,hospital,Palestine Regional Medical Center - West Campus,no,Palestine,South Loop 256,4000,75801,hospital,https://www.palestineregional.com/,+1 903 731 1000,,Palestine Regional Medical Center,,,,,,,,,,,,,,
,,hospital,Palo Pinto General Hospital,yes,Mineral Wells,Southwest 25th Avenue,400,76067,hospital,https://www.ppgh.com/,+1 940 325 7891,24/7,,,,,,,,,,,,,,,
,,hospital,Pampa Regional Medical Center,yes,Pampa,Medical Plaza,1,79065,hospital,https://www.prmctx.com/,+1 806 665 3721,24/7,Prime Healthcare,,,,,,,,,,,,,,
,,hospital,PAM Rehabilitation Hospital of Beaumont,no,Beaumont,Plaza 10 Drive,3340,77701,hospital,http://www.warmsprings.org/our-facilities/outpatient-rehabilitation/rehabilitation-hospital-beaumont/,+1 409 835 0835,,Post Acute Medical,,,HealthSouth Rehabilitation Center,,,,,,,,,,,
,,hospital,PAM Rehabilitation Hospital of Victoria,no,Victoria,James Coleman Drive,101,77904,hospital,http://www.warmsprings.org/our-facilities/outpatient-rehabilitation/warm-springs-rehabilitation-center-victoria/,+1 361 220 7803,,Post Acute Medical,,,,,,,,,,,,,,
,,hospital,PAM Specialty Hospital of Luling,no,Luling,Memorial Drive,200,78468,hospital,http://www.warmsprings.org/our-facilities/hospitals/warm-springs-specialty-hospital-luling/,+1 830 875 8400,,Post Acute Medical,,TX,Warm Spring Rehabilitation Hospital,,,,,,,,,,,
,,hospital,PAM Specialty Hospital of Victoria North,no,Victoria,Medical Drive,102,77904,hospital,http://www.warmsprings.org/our-facilities/hospitals/warm-springs-specialty-hospital-victoria/,+1 361 576 6200,,Post Acute Medical,,,Victoria Warm Springs Rehabilitation Hospital,,,,,,,,,,,
,,hospital,Panhandle Surgery Hospital,no,Amarillo,West 9th Avenue,7100,79106,hospital,http://www.physurg.com/,+1 806 212 0247,,Physicians Surgical Hospitals,,,,surgery,,,,,,,,,,
,,hospital,Paris Regional Medical Center,yes,Paris,Deshong Drive,865,75460,hospital,http://parisregionalmedical.com/,+1 903 785 4521,24/7,,,,,,,,,,,,,,,
,,hospital,Paris Regional Medical Center – South Campus,no,Paris,Clarksville Street,820,75460,hospital,http://parisregionalmedical.com/,,,Paris Regional Medical Center,,,,,,,,,,,,,,
,,hospital,Parkland Memorial Hospital,yes,Dallas,Harry Hines Boulevard,5200,75235,hospital,https://www.parklandhospital.com/phhs/home.aspx,+1 214 590 8000,24/7,Parkland Health & Hospital System,,,,,Q3896131,en:Parkland Memorial Hospital,,,,,,,,
,,hospital,Park Plaza Hospital,yes,Houston,Hermann Drive,1313,77004,hospital,https://www.parkplazahospital.com/,+1 713 527 5000,24/7,HCA,,TX,,,,,,,,,,,,
,,hospital,Parkview Hospital,yes,Wheeler,South Sweetwater Street,901,79096,hospital,http://wheelertexas.org/businesses/parkview/,+1 806 826 5581,24/7,,,,,,,,,,,,,,,
,,hospital,Parkview Regional Hospital,yes,Mexia,South Bonham Street,600,76667,hospital,https://www.parkviewregional.com/,+1 254 562 5332,24/7,,,,,,,,,,,,,,,
,,hospital,Parmer Medical Center,yes,Friona,Cleveland Avenue,1307,79035,hospital,http://www.parmermedicalcenter.com/,+1 806 250 2754,24/7,,,TX,,,,,,,,,,,,
,,hospital,Pearland Meidcal Center,,Pearland,Shadow Creek Parkway,10970,77584,hospital,,,,,,TX,,,,,,,,,,,,
,,hospital,Pecos County Memorial Hospital,yes,Fort Stockton,West IH-10,387,79735,hospital,http://www.pcmhfs.com/,+1 432 336 2004,24/7,,,,,,,,,PCMH,,,,,,
,,hospital,Permian Regional Medical Center,yes,Andrews,Hospital Drive,720,79714,hospital,http://permianregional.com/,+1 432 523 2200,24/7,,,,Permian General Hospital,,,,,,,,,,,
,,hospital,Peterson Regional Medical Center,yes,Kerrville,Hill Country Drive,551,78028,hospital,https://www.petersonhealth.com/,+1 830 896 4200,24/7,,,TX,,,,,,,,,,,,
,,hospital,Pine Creek Medical Center,yes,Dallas,Harry Hines Boulevard,9032,75235,hospital,https://pinecreekmedicalcenter.com/,+1 214 231 2273,24/7,,,,,,,,,,,,,,,
,,hospital,Pine Valley Specialty Hospital,no,Houston,South Loop East,6160,77087,hospital,http://www.pinevalleyspecialtyhospital.com/,+1 713 640 2400,,Concord Healthcare Group,,,Gullway General Hospital,,,,,,,,,,,
,,hospital,Plains Memorial Hospital,yes,Dimmitt,West Halsell Street,310,79027,hospital,https://www.plainsmemorial.com/,+1 806 647 2191,24/7,Castro County Healthcare,,,,,,,,,,,,,,
,,hospital,Plum Creek Speciality Hospital,no,Amarillo,Plum Creek Drive,5601,79124,hospital,http://specialtyhospitalplumcreek.com/,+1 806 351 1000,,Concord Healthcare Group,,,Amarillo Integrated Health Services Hospital,,,,,,,,,,,
,,hospital,Promise Hospital of Dallas,no,Dallas,Harry Hines Boulevard,7955,75235,hospital,https://www.promise-dallas.com/,+1 214 637 0000,,Promise Healthcare,,,"Dallas Integrated Health Services Hospital;Texas Specialty Hospital",,,,,,,,,,,
,,hospital,Promise Hospital of Wichita Falls,no,Wichita Falls,Grace Street,1103,76301,hospital,https://www.promise-wichitafalls.com/,+1 940 720 6633,,,,,Wichita Falls Integrated Health Services Hospital,,,,,,,,,,,
,,hospital,Providence Health Center,yes,Waco,Medical Parkway,6901,76712,hospital,https://www.providence.net/,+1 254 751 4000,24/7,Providence Healthcare Network,,,,,,,,,,,,,,
,,hospital,Providence Hospital of North Houston,yes,Houston,Red Oak Drive,16750,77090,hospital,https://providence.hospital/,+1 281 453 7110,24/7,,,,,,,,,PHNH,,,,,,
,,hospital,Quail Creek Surgical Hospital,yes,Amarillo,Plum Creek Drive,6819,79106,hospital,http://www.physurg.com/,+1 806 354 6100,24/7,Physicians Surgical Hospitals,20,,,surgery,,,,,,,,,,
,,hospital,Quentin Mease Hospital,no,Houston,North MacGregor Way,3601,77004,hospital,https://www.harrishealth.org/locations-hh/Pages/quentin-mease.aspx,+1 713 873 3700,,Harris Health,,TX,,,,,,,,,,,,
,,hospital,Rankin County Hospital District,yes,Rankin,Spur 576,1611,79731,hospital,https://www.rankinhospital.org/,+1 432 693 1200,24/7,,,,,,,,,,,,,,,
,,hospital,Reagan Hospital District,yes,Big Lake,North Main Avenue,1300,76932,hospital,http://www.reaganhealth.com/,+1 325 884 2561,24/7,,,,,,,,,,,,,,,
,,hospital,Reeves County Hospital,yes,Pecos,Texas Street,2323,79772,hospital,http://www.reevescountyhospital.com/,+1 432 447 3551,24/7,Reeves County Hospital District,,,,,,,,,,,,,,
,,hospital,Refugio County Memorial Hospital,yes,Refugio,Swift Street,107,78377,hospital,http://refugiohospital.com/,+1 361 526 2321,24/7,,,,,,,,,,,,,,,
,,hospital,Reliant Rehabilitation Hospital,no,,,,,,,,,,,,,,,,,,,,,,,
,,hospital,Resolute Health Hospital,yes,New Braunfels,Creekside Crossing,555,78130,hospital,https://www.resolutehealth.com/,+1 830 500 6900,24/7,TH Medical,128,,,,,,,,,,,,,
,,hospital,Riceland Medical Center,yes,Winnie,Broadway Avenue,538,77665,hospital,https://www.ricelandhealthcare.com/riceland-medical-center/,+1 409 296 6000,24/7,Riceland Healthcare,25,,,,,,,,,,,,,
,,hospital,Rice Medical Center,yes,Eagle Lake,South Austin Road,600,77434,hospital,http://www.ricemedicalcenter.net/,+1 979 234 5571,24/7,,25,,,,,,,,,,,,,
,,hospital,Richmond State Supported Living Center,no,Richmond,Preston Street,2100,77469,hospital,https://www.dads.state.tx.us/services/sslc/,+1 281 232 2075,,Texas Department of Aging and Disability Services,,TX,,,,,,,mental_health,group_home,,,,
,,hospital,Rio Grande Regional Hospital,yes,McAllen,East Ridge Road,101,78503,hospital,https://riohealth.com/,+1 956 632 6000,24/7,HCA Healthcare Gulf Coast Division,,,,,,,,,,,,,,
,,hospital,Rio Grande State Center,no,Harlingen,South Rangerville Road,1401,78552,hospital,https://www.dads.state.tx.us/services/sslc/,,,Texas Department of State Health Services,,TX,,,,,,,mental_health,group_home,,,,
,,hospital,Riverside General Hospital,yes,Houston,Ennis Street,3204,77004,hospital,http://www.riversidegeneralhospital.org/,+1 713 526 2441,24/7,,,,,,Q16845828,en:Riverside General Hospital,,,,,,,,
,,hospital,Rolling Plains Memorial Hospital,yes,Sweetwater,East Arizona Avenue,200,79556,hospital,https://www.rpmh.net/,+1 325 235 1701,24/7,,,,,,,,,,,,,,,
,,hospital,Rollins Brook Community Hospital,yes,Lampasas,North Key Avenue,608,76550,hospital,http://www.mplex.org/about-us/rollins-brook,+1 512 556 3682,24/7,Metroplex Health System,25,,,,,,,,,,,,,
,,hospital,Rusk State Hospital,no,Rusk,North Dickinson Drive,805,75785,,https://dshs.texas.gov/mhhospitals/default.shtm,,,Texas Department of State Health Services,,TX,,,,,,,mental_health,,,,,
,,hospital,Sabine County Hospital,yes,Hemphill,Worth Street,2301,75948,hospital,http://www.sabinecountyhospital.com/,+1 409 787 3300,24/7,,25,,,,,,,,,,,,,
,,hospital,Saint Camillus Medical Center,yes,Hurst,Hurst Town Center Drive,1612,76054,hospital,https://saintcamillusmedicalcenter.com/,+1 817 519 3700,24/7,,23,,,,,,,,,,,,,
,,hospital,Saint David's Georgetown Hospital,yes,Georgetown,Scenic Drive,2000,78626,hospital,https://stdavids.com/location/st-davids-georgetown-hospital,+1 512 943 3000,24/7,HCA,111,,Georgetown Hospital,,,,,,,,,,,
,,hospital,Saint David's Medical Center,yes,Austin,East 32nd Street,919,78705,hospital,https://stdavids.com/location/st-davids-medical-center,+1 512 476 7111,24/7,HCA,,,,,,,,,,,,,,
,,hospital,Saint David's North Austin Medical Center,yes,Austin,North MoPac Expressway,12221,78758,hospital,https://stdavids.com/location/st-davids-north-austin-medical-center,+1 512 901 1000,24/7,HCA,,,,,,,,,,,,,,
,,hospital,Saint David's Round Rock Medical Center,yes,Round Rock,Round Rock Avenue,2400,78681,hospital,https://stdavids.com/location/st-davids-round-rock-medical-center,+1 512 341 1000,24/7,HCA,,,,,,,,,,,,,,
,,hospital,Saint David's South Austin Medical Center,yes,Austin,West Ben White Boulevard,901,78704,hospital,https://stdavids.com/location/st-davids-south-austin-medical-center,+1 512 447 2211,24/7,HCA,,,,,,,,,,,,,,
,,hospital,Saint David's Surgical Hospital,no,Austin,West Louis Henna Boulevard,1201,78681,hospital,https://stdavids.com/location/st-davids-surgical-hospital,+1 512 248 7000,,HCA,,TX,,surgery,,,,,,,,,,
,,hospital,Saint Joseph Medical Center,yes,Houston,Saint Joseph Parkway,1401,77002,hospital,https://sjmctx.org/,+1 713 757 1000,24/7,Steward Health Care,,,,,Q16899615,en:St. Joseph Medical Center (Houston),,,,,,,,
,,hospital,Saint Joseph's Medical Center,yes,Houston,Ashland Street,1917,77008,hospital,https://sjmctx.org/,,24/7,Steward Health Care,,,,,,,,,,,,,,
,,hospital,Saint Luke's Baptist Hospital,yes,San Antonio,Floyd Curl Drive,7930,78229,hospital,https://www.baptisthealthsystem.com/our-locations/st-luke-s-baptist-hospital,+1 210 297 5000,24/7,TH Medical,,,,,,,,,,,,,,
,,hospital,Saint Mark's Medical Center,yes,La Grange,Saint Mark's Place,1,78945,hospital,http://www.smmctx.org/,+1 979 242 2200,24/7,,65,,,,,,,,,,,,,
,,hospital,Sam Rayburn Veterans Administration Hospital,no,Bonham,East 9th Street,1201,75418,hospital,https://www.northtexas.va.gov/locations/Bonham.asp,+1 800 924 8387,,United States Department of Veterans Affairs,,,,,,,,,,,,,,
,,hospital,San Angelo Community Medical Center,yes,San Angelo,Knickerbocker Road,3501,76904,hospital,https://www.sacmc.com/,+1 325 949 9511,24/7,,,,,,,,,,,,,,,
,,hospital,San Angelo State Supported Living Center,no,Carlsbad,US Highway 87 North,11640,76934,hospital,https://www.dads.state.tx.us/services/SSLC/,+1 325 465 4391,,Texas Department of Aging and Disability Services,,TX,,,Q6070210,en:Texas state supported living centers,,,mental_health,group_home,,,,
,,hospital,San Antonio Military Medical Center,yes,,,,,hospital,http://www.bamc.amedd.army.mil/,+1 210 916 7500,24/7,,,,,,Q7413343,en:Brooke Army Medical Center,,BAMC,,,,Brooke Army Medical Center,,private
,,hospital,San Antonio State Hospital,no,San Antonio,South New Braunfels Avenue,6711,78223,hospital,https://www.dshs.state.tx.us/mhhospitals/,+1-210-532-8811,,Texas Department of State Health Services,,TX,,,,,,,mental_health,group_home,,,,
,,hospital,San Antonio State Supported Living Center,no,San Antonio,South New Braunfels Avenue,6711,78223,hospital,https://www.dads.state.tx.us/services/SSLC/,+1-210-532-9610,,Texas Department of Aging and Disability Services,,TX,,,,,,,mental_health,group_home,,,,
,,hospital,San Antonio Warm Springs Rehabilitation Hospital,no,San Antonio,Medical Drive,5101,78229,hospital,http://www.warmsprings.org/our-facilities/outpatient-rehabilitation/warm-springs-rehabilitation-hospital-san-antonio/,+1 210 616 0100,,Post Acute Medical,,,,,,,,,,,,,,
,,hospital,Scenic Mountatin Medical Center,yes,Big Spring,West 11th Place,1601,79720,hospital,http://www.smmccares.com/,+1 432 263 1211,24/7,,150,,,,,,,,,,,,,
,,hospital,Schleicher County Medical Center,yes,Eldorado,North US Highway 277,102,76936,hospital,http://www.scmc.us/,+1 325 853 2507,24/7,,14,,,,,,,SCMC,,,,,,
,,hospital,Seton Edgar B. Davis Hospital,yes,Luling,Hays Street,130,78468,hospital,https://www.seton.net/locations/edgar-davis/,+1 830 875 7000,24/7,Seton Healthcare Family,,TX,,,,,,,,,,,,
,,hospital,Seton Medical Center Austin,yes,Austin,West 38th Street,1201,78705,hospital,https://www.seton.net/locations/smc/,+1 512 324 1000,24/7,Seton Healthcare Family,,TX,,,,,,SMCA,,,,,,
,,hospital,Seton Medical Center Harker Heights,yes,Harker Heights,West Central Texas Expressway,850,76548,hospital,https://setonharkerheights.net/,+1 254 690 0900,24/7,,83,,,,,,,,,,,,,
,,hospital,Seton Medical Center Hays,yes,Kyle,Kyle Parkway,6001,78640,hospital,https://www.seton.net/locations/seton-medical-center-hays/,+1 512 504 5000,24/7,Seton Healthcare Family,,,,,,,,,,,,,,
,,hospital,Seton Medical Center Williamson,yes,Round Rock,Seton Parkway,201,78665,hospital,https://www.seton.net/locations/seton-medical-center-williamson/,+1 512 324 4000,24/7,Ascension,149,,,,,,,,,,,,,
,,hospital,Seton Northwest Hospital,yes,Austin,Research Boulevard,11113,78759,hospital,https://www.seton.net/locations/northwest/,+1 512 324 6000,24/7,Ascension,,,,,,,,,,,,,,
,,hospital,Seton Shoal Creek Hospital,no,Austin,Mills Avenue,3501,78731,hospital,https://www.seton.net/locations/shoal-creek/,+1 512 324 2000,,Seton Healthcare Family,,TX,,psychiatry,,,,,,,,,,
,,hospital,Seton Smithville Regional Hospital,yes,Smithville,Hill Road,2301,78957,hospital,https://www.seton.net/locations/seton-smithville-regional-hospital/,+1 512 237 3214,24/7,Seton Healthcare Family,,,Smithville Regional Hospital,,,,,,,,,,,
,,hospital,Seton Southwest Hospital,yes,Austin,Farm-to-Market Road 1826,7900,78737,hospital,https://www.seton.net/locations/southwest/,+1 512 324 9000,24/7,Seton Healthcare Family,,,,,,,,,,,yes,,,
,,hospital,Seymour Hospital,yes,Seymour,North Stadium Drive,200,76380,hospital,http://www.seymourhospital.com/,+1 940 889 5572,24/7,,,,,,,,,,,,,,,
,,hospital,Shamrock General Hospital,yes,Shamrock,South Main Street,1000,79079,hospital,,+1 806 256 2114,24/7,,,,,,,,,,,,,,,
,,hospital,Shannon Medical Center,yes,San Angelo,East Harris Avenue,120,76903,hospital,https://www.shannonhealth.com/,+1 325 653 6741,24/7,,400,,Shannon West Texas Memorial Hospital,,,,,,,,,,,
,,hospital,Shannon Medical Center Saint John's Campus,no,San Angelo,Pulliam Street,2018,76903,hospital,https://www.shannonhealth.com/,+1 325 659 7100,,Shannon Medical Center,,,Saint Johns Hospital,,,,,,,,,,,
,,hospital,Shriners Hospitals for Children — Houston,no,Houston,South Main Street,6977,77030,hospital,https://www.shrinershospitalsforchildren.org/houston,+1 713 797 1616,,Shriners Hospitals for Children,40,TX,,paediatrics,Q7504104,en:Shriners Hospital for Children (Houston),hospital,,,,,,,
,,hospital,Sierra Medical Center,yes,El Paso,Medical Center Drive,1625,79902,hospital,https://www.thehospitalsofprovidence.com/our-locations/sierra-campus,+1 915 747 4000,24/7,The Hospitals of Providence,,,,,,,,,,,,,,
,,hospital,South Texas Spine and Surgical Hospital,yes,San Antonio,Hardy Oak Boulevard,18600,78258,hospital,https://southtexassurgical.com/,+1 210 404 0800,24/7,,,,,,,,,,,,,,,
,,hospital,South Texas Surgical Hospital,yes,Corpus Christi,Parkway Drive,6130,78414,hospital,https://southtexassurgicalhospital.com/,+1 361 993 2000,24/7,,33,,,,,,,,,,,,,
,,hospital,Southwest General Hospital,yes,San Antonio,Barlite Boulevard,7800,78224,hospital,https://southwestgeneralhospital.org/,+1 210 921 2000,24/7,Steward Health Care,327,,,,,,,,,,,,,
,,hospital,Stamford Memorial Hospital,yes,Stamford,Columbia Street,1601,79553,hospital,http://www.stamfordhosp.com/,+1 325 773 2725,24/7,,,,,,,,,SMH,,,,,,
,,hospital,Starr County Memorial Hospital,yes,Rio Grande City,North FM 3167,128,78582,hospital,http://www.starrcountyhospital.com/,+1 956 487 5561,24/7,,48,,,,,,,SCMH,,,,,,
,,hospital,Stephens Memorial Hospital,yes,Breckenridge,South Geneva Street,200,76424,hospital,http://www.smhtx.com/,+1 254 559 2241,24/7,,,,,,,,,,,,,,,
,,hospital,Stonewall Memorial Hospital,yes,Aspermont,North Broadway Street,821,79502,hospital,https://www.stonewallhospital.org/,+1 940 989 3551,24/7,,,,,,,,,,,,,,,
,,hospital,Sun Behavioral Houston,no,Houston,Fannin Street,7601,77054,hospital,http://www.sunhouston.com/,+1 713 796 2273,,,,,Intracare Medical Center Hospital,psychiatry,,,,,,,,,,
,,hospital,Sundance Behavioral Hospital,no,Garland,West Walnut Street,2696,75042,hospital,https://sunbhc.com/,+1 469 440 5566,,Sundance Behavioral Healthcare,,,Garland Community Hospital,,,,,,,,,,,
,,hospital,Sunrise Canyon Hospital,no,Lubbock,Aspen Avenue,1950,79404,hospital,http://www.lubbockmhmr.org/sch/,+1 806 766 0310,,StarCare Lubbock,30,,,psychiatry,,,,,,,,,,
,,hospital,Surgery Specialty Hospitals of America,yes,Pasadena,Vista Road,4301,77504,hospital,http://ssha.us.com/,+1 713 378 3000,24/7,Dynacq Healthcare,,,,,,,,,,,,,,
,,hospital,Sweeny Community Hospital,yes,Sweeny,North McKinney Street,305,77480,hospital,http://www.sweenyhospital.org/,+1 979 548 1500,24/7,,,,,,,,,,,,,,,
,,hospital,Swisher Memorial Hospital,yes,Tulia,Southeast 2nd Street,539,79088,hospital,http://www.swisherhospital.com/,+1 806 995 3581,24/7,,,,,,,,,,,,,,,
,,hospital,Terrell State Hospital,no,Terrell,East Brin Street,1200,75160,,https://dshs.texas.gov/mhhospitals/default.shtm,,,Texas Department of State Health Services,,TX,,,,,,,,,,,,
,,hospital,Texas Center for Infectious Disease,no,San Antonio,Southeast Military Drive,2303,78223,hospital,https://www.dshs.texas.gov/tcid/,+1 210 534 8857,,Texas Department of State Health Services,,TX,,,,,,,,,,,,
,,hospital,Texas Children's Hospital The Woodlands,yes,The Woodlands,Interstate 45 South,17600,77384,hospital,https://www.texaschildrens.org/departments/texas-childrens-hospital-woodlands,+1 936 267 5000,24/7,Texas Children's Hospital,,,,,,,,,,,,,,
,,hospital,Texas Children's Hospital West Campus,yes,Houston,Katy Freeway,18200,77094,hospital,https://www.texaschildrens.org/departments/texas-childrens-hospital-west-campus,+1 832 227 1000,24/7,Texas Children's Hospital,,TX,,,,,,,,,,,,
,,hospital,Texas Department of Criminal Justice Hospital,no,Galveston,University Boulevard,301,77555,hospital,https://www.utmb.edu/tdcj/,+1 409 772 7623,,,,,,,,,hospital,TDCJ,,,,,,private
,,hospital,Texas Diabetes Institute,no,San Antonio,South Zarzamora Street,701,78207,hospital,https://www.universityhealthsystem.com/services/diabetes,+1 210 358 7000,Mo-Fr 08:00-17:00,University Health System,,,,,,,,,,,,,,
,,hospital,Texas Emergency Hospital,yes,Cleveland,East Crockett Street,300,77327,hospital,https://www.clevelandemergency.com/texas-rural-hospital,+1 281 592 5400,24/7,Cleveland Emergency Hospital System,,,Cleveland Regional Medical Center,,,,,,,,,,,
,,hospital,Texas General Hospital,yes,Grand Prairie,Hospital Boulevard,2709,75051,hospital,http://texasgeneralhospital.com/,+1 469 999 0000,24/7,,,TX,,,,,,,,,,,,
,,hospital,Texas General Hospital,yes,Grand Saline,North Waldrip Street,707,75140,hospital,http://texasgeneralhospital.com/,+1 903 717 3300,24/7,,,,Cozby - Germany Hospital,,,,,,,,,,,
,,hospital,Texas Health Allen,yes,Allen,Central Expressway,1105,75013,hospital,https://www.texashealth.org/allen/,+1 972 747 1000,24/7,Texas Health,,,,,,,,,,,,,,
,,hospital,Texas Health Arlington Memorial Hospital,yes,Arlington,West Randol Mill Road,800,76012,hospital,https://www.texashealth.org/arlington/,+1 817 960 6100,24/7,Texas Health,369,,,,Q4792363,en:Arlington Memorial Hospital,,,,,,,,
,,hospital,Texas Health Harris Methodist Hospital Alliance,yes,Fort Worth,Texas Health Trace,10864,76244,hospital,https://www.texashealth.org/alliance/,+1 682 212 2000,24/7,Texas Health,,,,,,,,,,,,,,
,,hospital,Texas Health Harris Methodist Hospital Azle,yes,Azle,Denver Trail,108,76020,hospital,https://www.texashealth.org/azle/,+1 817 444 8600,24/7,Texas Health,,,,,,,,,,,,,,
,,hospital,Texas Health Harris Methodist Hospital Cleburne,yes,Cleburne,Walls Drive,201,76033,hospital,https://www.texashealth.org/cleburne/,+1 817 641 2551,24/7,Texas Health,,,,,,,,,,,,,,
,,hospital,Texas Health Harris Methodist Hospital Fort Worth,yes,Fort Worth,Pennsylvania Avenue,1301,76104,hospital,https://www.texashealth.org/fortworth/,+1 817 250 2000,24/7,Texas Health,,,,,,,,,,,,,,
,,hospital,Texas Health Harris Methodist Hospital Southlake,yes,Southlake,East Southlake Boulevard,1545,76092,hospital,https://www.texashealthsouthlake.com/,+1 817 748 8700,24/7,Texas Health Resources,17,,,,,,,,,,,,,
,,hospital,Texas Health Harris Methodist Hospital Stephenville,yes,Stephenville,North Belknap Street,401,76401,hospital,https://www.texashealth.org/stephenville/,+1 254 965 1500,24/7,Texas Health,,,Harris Methodist Erath County,,,,,,,,yes,,,
,,hospital,Texas Health Hospital,,,,,,,,,,,,,,,,,hospital,,,,,,,
,,hospital,Texas Health Huguley Hospital Fort Worth South,yes,Burleson,South Freeway,11801,76028,hospital,http://www.texashealthhuguley.org/,+1 817 293 9110,24/7,Adventist Health System,356,,,,Q14710517,,,,,,,,,
,,hospital,Texas Health Presbyterian Hospital Dallas,yes,Dallas,Walnut Hill Lane,8200,75231,hospital,https://www.texashealth.org/dallas/,+1 214 345 6789,24/7,Texas Health Resources,,,,,Q7240782,en:Presbyterian Hospital of Dallas,,,,,yes,,,
,,hospital,Texas Health Presbyterian Hospital Denton,yes,Denton,North I-35,3000,76201,hospital,https://www.texashealth.org/denton/,+1 940 898 7000,24/7,Texas Health,,,Denton Community Hospital,,Q7707723,en:Texas Health Presbyterian Hospital Denton,,,,,,,,
,,hospital,Texas Health Presbyterian Hospital Flower Mound,yes,Flower Mound,Long Prairie Road,4400,75028,hospital,https://www.texashealthflowermound.com/,+1 469 322 7000,24/7,Texas Health,,,,,,,,,,,,,,
,,hospital,Texas Health Presbyterian Hospital Kaufman,yes,Kaufman,Ed Hall Drive,850,75142,hospital,https://www.texashealth.org/kaufman/,+1 972 932 7200,24/7,Texas Health,91,,Presbyterian Hospital of Kaufman,,,,,,,,,,,
,,hospital,Texas Health Presbyterian Hospital Plano,yes,Plano,West Parker Road,6200,75093,hospital,https://www.texashealth.org/plano/,+1 972 981 8000,24/7,Texas Health Resources,,,Presbyterian Hospital of Plano,,,,,,,,,,,
,,hospital,Texas Health Presbyterian Hospital Rockwall,yes,Rockwall,Horizon Road,3150,75032,hospital,https://www.texashealthrockwall.com/,+1 469 698 1000,24/7,,61,,,,,,,,,,,,,
,,hospital,Texas Institute for Surgery At Texas Health Presbyterian Dallas,yes,Dallas,Greenville Avenue,7115,75231,hospital,http://www.texasinstituteforsurgery.com/,+1 214 647 5300,24/7,Texas Institute for Surgery,9,,,surgery,,,,,,,,,,
,,hospital,Texas NeuroRehab Center,no,Austin,West Dittmar Road,1106,78745,hospital,https://texasneurorehab.com/,+1 512 444 4835,,,,,,,,,,,,,,,,
,,hospital,Texas Orthopedic Hospital,yes,Houston,South Main Street,7401,77030,hospital,https://texasorthopedic.com/,+1 713 799 8600,24/7,HCA,,,,,,,,,,,,,,
,,hospital,Texas Rehabilitation Hospital of Fort Worth,no,Fort Worth,Alabama Avenue,425,,hospital,http://www.texasrehabhospital.com/,+1 817 820 3400,,,,,,,,,hospital,,,,,,,
,,hospital,Texas Scottish Rite Hospital for Children,no,Dallas,Welborn Street,2222,75219,hospital,https://scottishritehospital.org/,+1 214 559 5000,,,,,,paediatric_orthopaedics,Q7707955,en:Texas Scottish Rite Hospital for Children,,,,,,,,
,,hospital,Texoma Medical Center,yes,Denison,South US Highway 75,5016,75020,hospital,https://www.texomamedicalcenter.net/,+1 903 416 4000,24/7,Universal Health Services,,,,,,,,,,,,,,
,,hospital,The Children's Hospital of San Antonio,yes,San Antonio,North Santa Rosa Street,333,78207,hospital,https://www.christushealth.org/santa-rosa/childrens-hospital-of-san-antonio,+1-210-704-2011,24/7,CHRISTUS Health,,,,paediatrics,,,,,,,,Santa Rosa Infirmary,,
,,hospital,The Heart Hospital Baylor Denton,yes,Denton,South Mayhill Road,2801,76208,hospital,https://denton.thehearthospitalbaylor.com/,+1 940 220 0600,24/7,,22,,,psychiatry,,,hospital,,,,,,,
,,hospital,The Hospital at Westlake Medical Center,yes,Austin,Bee Cave Road,5656,78746,hospital,https://www.westlakemedical.com/thehospital/,+1 512 327 0000,24/7,,,,,,,,,,,,,,,
,,hospital,The Hospitals of Providence - East Campus,yes,El Paso,Joe Battle Boulevard,3280,79998,hospital,https://www.thehospitalsofprovidence.com/our-locations/east-campus,+1 915 832 2000,24/7,The Hospitals of Providence,182,,,,,,,,,,,,,
,,hospital,The Hospitals of Providence Memorial Campus,,,,,,hospital,,,,,,,,,,,,,,,,,,
,,hospital,The Hospitals of Providence Transmountain Campus,yes,El Paso,Woodrow Bean Transmountain Drive,2000,79911,hospital,https://www.thehospitalsofprovidence.com/our-locations/transmountain-campus,+1 915 877 8457,24/7,TH Medical,106,TX,,,,,,,,,,,,
,,hospital,The Medical Center of Southeast Texas,yes,Port Arthur,Jimmy Johnson Boulevard,2555,77640,hospital,https://www.medicalcentersetexas.org/,+1 409 724 7389,24/7,Steward Health Care,204,,,,,,,,,,,,,
,,hospital,The Pavillion Hospital,no,Amarillo,South Coulter Street,1501,79106,hospital,http://www.pavilionnwtexashealthcare.com/,+1 806 354 1810,,Northwest Texas Healthcare System,,TX,,psychiatry,,,,,,,,,,
,,hospital,The Physicians Centre Hospital,yes,Bryan,University Drive East,3131,77802,hospital,http://thephysicianscentre.com/,+1 979 731 3100,24/7,,16,,,,,,,,,,,,,
,,hospital,The Woman's Hospital of Texas,yes,Houston,Fannin Street,7600,77054,hospital,https://womanshospital.com/,+1 713 790 1234,24/7,HCA,,,,,Q8030648,en:Woman's Hospital of Texas,,,,,,,,
,,hospital,The Women's Hospital at Renaissance,yes,Edinburg,South McColl Road,5502,78539,hospital,https://www.dhr-rgv.com/Healthcare-Services/Womens-Hospital-at-Renaissance.aspx,+1 956 362 2229,24/7,Doctors Hospital at Renaissance,151,,,,,,,,,,,,,
,,hospital,Thomas E. Creek VA Medical Center,yes,Amarillo,Amarillo Boulevard West,6010,79106,hospital,https://www.amarillo.va.gov/,+1 806 355 9703,24/7,United States Department of Veterans Affairs,,TX,,,,,,,,,,Amarillo VA Health Care Cystem,,
,,hospital,Throckmorton County Memorial Hospital,yes,Throckmorton,North Minter Avenue,802,76483,hospital,,+1 940 849 2151,24/7,,,,,,,,,,,,,,,
,,hospital,Titus Regional Medical Center,yes,Mount Pleasant,North Jefferson Avenue,2001,75455,hospital,https://www.titusregional.com/,+1 903 577 6000,24/7,,,,Titus County Memorial Hospital,,,,,TRMC,,,,,,
,,hospital,TMC Bonham Hospital,yes,Bonham,Lipscomb Street,504,75418,hospital,https://tmcbonham.com/,+1 903 583 8585,24/7,,,,,,,,,,,,,,,
,,hospital,Tomball Regional Medical Center,yes,Tomball,Holderrieth Boulevard,605,77375,hospital,https://tomballregionalmedicalcenter.com/,+1 281 401 7500,24/7,HCA,,TX,,,,,,,,,,,,
,,hospital,Trinity Mother Francis Hospital - Jacksonville,yes,Jacksonville,South Jackson Street,2026,75766,,https://www.tmfhc.org/jacksonville,+1 903 541 4500,,,,TX,,,,,hospital,,,,,,US,
,,hospital,Trustpoint Rehabilitation Hospital of Lubbock,no,Lubbock,Princeton Street,4302,79415,hospital,http://trhl.ernesthealth.com/,+1 806 749 2222,,Ernest Health,,TX,Texas Specialty Hospital,,,,,,,,,,,
,,hospital,Tyler County Hospital,yes,Woodville,West Bluff Street,1100,75979,hospital,https://www.tchospital.us/,+1 409 283 8141,24/7,,,,,,,,,,,,,,,
,,hospital,UMC Orchard Park Family Medicine,,,,,,hospital,,,,UMC Physicians,,,,,,,,,,,,,,
,,hospital,United Memorial Medical Center,yes,Houston,West Tidwell Road,510,77026,hospital,http://www.ummc.care/,+1 281 618 8500,24/7,,117,TX,Doctors Hospital,,,,,UMMC,,,,,,
,,hospital,United Regional Health Care System,yes,Wichita Falls,11th Street,1600,76301,hospital,https://www.unitedregional.org/,+1 940 764 7000,24/7,United Regional Health Care System,,,Bethania Hospital,,,,,,,,,,,
,,hospital,University Hospital,yes,San Antonio,Medical Drive,4502,78229,hospital,https://www.universityhealthsystem.com/locations/san-antonio/university-hospital-4502-medical-dr-san-antonio-78229,+1 210 358 4000,24/7,University Health System,,,,,Q7036976,en:University Health System,,,,,,,,
,,hospital,University Medical Center,yes,El Paso,Alameda Avenue,4815,79905,hospital,http://www.umcelpaso.org/,+1 915 544 1200,24/7,,,,,,Q7894821,"en:University Medical Center (El Paso, Texas)",,,,,,,,
,,hospital,University Medical Center,yes,Lubbock,Indiana Avenue,602,79415,hospital,https://www.umchealthsystem.com/,+1 806 775 8200,24/7,UMC Health System,,,,,Q7894822,"en:University Medical Center (Lubbock, Texas)",,,,,,,,
,,hospital,University of Texas Health Science Center at Tyler,yes,Tyler,US Highway 271,11937,75708,hospital,https://www.uthct.edu/,+1 903 877 7000,24/7,UT Health,,TX,,,Q7896437,en:UT Health East Texas - North Campus,,,,,,,,
,,hospital,University of Texas MD Anderson Cancer Center,no,Houston,Holcombe Boulevard,1515,77030,hospital,https://www.mdanderson.org/about-md-anderson/our-locations/texas-medical-center.html,,,,,,,oncology,Q1525831,en:University of Texas MD Anderson Cancer Center,hospital,,,,,MD Anderson,,
,,hospital,USMD Hospital at Arlington,yes,Arlington,West Interstate 20,801,76017,hospital,https://www.usmdarlington.com/,+1 817 472 3400,24/7,,,,,,,,,,,,,,,
,,hospital,USMD Hospital at Fort Worth,yes,Fort Worth,Altamesa Boulevard,5900,76132,hospital,https://www.usmdfortworth.com/,+1 817 433 9166,24/7,,,,,,,,,,,,,,,
,,hospital,US Pain & Spine Hospital,yes,Houston,La Branch Street,5445,77004,hospital,http://www.uspshospital.com/,+1 713 528 6800,24/7,US Pain & Spine,7,TX,,,,,hospital,,,,,Houston Hospital for Specialized Surgery,,
,,hospital,UT Health East Texas Behavioral Health Center,no,Tyler,University Boulevard,4101,75701,,www.uthealtheasttexas.com,,,UT Health East Texas,,TX,,psychiatry,,,,,,,,,,
,,hospital,UTHealth Harris County Psychiatric Center,no,Houston,South MacGregor Way,2800,77021,hospital,https://hcpc.uth.edu/,+1 713 741 5000,24/7,,,,,psychiatry,Q5664844,en:Harris County Psychiatric Center,,HCPC,,,,,,
,,hospital,UT Health - Henderson,yes,Henderson,Wilson Street,300,75652,,https://uthealthhenderson.com/,903-657-7541,,,,TX,,,,,,,,,,,,
,,hospital,UT Health Pittsburg,yes,Pittsburg,US 271,2701,75686,hospital,https://uthealthpittsburg.com/,+1 903 946 5000,24/7,UT Health,25,,East Texas Medical Center - Pittsburg,,,,,,,,,,,
,,hospital,UT Health Quitman,yes,Quitman,Winnsboro Street,117,75783,,https://uthealthquitman.com/,+1-903-763-6300,,,,TX,,,,,,,,,,,,
,,hospital,UTMB Health Angleton Danbury Campus,yes,Angleton,Hospital Drive,132,77515,hospital,https://www.utmb.edu/utmbhealth/locations/hospitals-campuses/angleton-danbury-campus/hospital,+1 979 849 7721,24/7,UTMB Health,,,,,,,,,,,,,,
,,hospital,Uvalde Memorial Hospital,yes,Uvalde,Garner Field Road,1025,78801,hospital,http://www.umhtx.org/,+1 830 278 6251,24/7,,,,,,,,,,,,,,,
,,hospital,Valley Baptist Medical Center,yes,Harlingen,Pease Street,2101,78550,hospital,https://www.valleybaptist.net/,+1 855 720 7448,24/7,TH Medical,,TX,,,,,,,,,,,,
,,hospital,Valley Baptist Medical Center — Brownsville,yes,Brownsville,West Jefferson Street,1040,78520,hospital,https://www.valleybaptist.net/,+1 956 698 5400,24/7,TH Medical,,,Brownsville Medical Center,,,,,,,,,,,
,,hospital,Valley Regional Medical Center,yes,Brownsville,East Alton Gloor Boulevard,100-A,78526,hospital,https://valleyregionalmedicalcenter.com/,+1 956 350 7000,24/7,HCA,,,,,,,,,,,,,,
,,hospital,VA Lubbock,,Lubbock,Avenue Q,6104,79412,hospital,,,,,,TX,,,,,,,,,,,,
,,hospital,Val Verde Regional Medical Center,yes,Del Rio,North Bedell Avenue,801,78840,hospital,https://www.vvrmc.org/,+1 830 775 8566,24/7,,,,,,,,,,,,,,,
,,hospital,Veterans Affairs Medical Center,yes,San Antonio,Merton Minter,7400,78229,hospital,https://www.southtexas.va.gov/,+1 210 617 5300,24/7,United States Department of Veterans Affairs,,,,,,,,,,,,,,private
,,hospital,Vibra Hospital of Amarillo,no,Amarillo,Wallace Boulevard,7501,79124,hospital,https://www.vibrahealthcare.com/amarillo/,+1 806 429 4127,,Vibra Healthcare,,TX,Kindred Hospital,,,,,,,,,,,
,,hospital,Vibra Rehabilitation Hospital of Amarillo,no,Amarillo,West 9th Avenue,7200,79106,hospital,https://www.vibrahealthcare.com/amarillo-rehabilitation/,+1 806 853 5690,,Vibra Healthcare,,,Quest Hospital,,,,,,,,,,,
,,hospital,"Vikram S. Jayanty, M.D. PA",,Houston,Katy Freeway,10837,77079,hospital,https://www.drjayanty.com/,+1-713-932-9200,"Mo 08:30-17:30; Tu 07:30-17:00; We 08:30-15:00; Th 07:30-16:30; Fr 08:30-17:00",Teresa Jayanty,,TX,,gastoenterology,,,yes,,,,,,,
,,hospital,Waco Center for Youth,no,Waco,North 19th Street,3501,76708,,https://dshs.texas.gov/mhhospitals/default.shtm,,,Texas Department of State Health Services,,TX,,,,,,,mental_health,group_home,,,,
,,hospital,Wadley Regional Medical Center,yes,Texarkana,Pine Street,1000,75501,hospital,https://wadleyhealth.org/,+1 903 798 8000,24/7,Steward Health Care,,,,,,,,,,,,,,
,,hospital,Ward Memorial Hospital,yes,Monahans,South Gary Avenue,406,79756,hospital,http://www.wardmemorial.com/,+1 432 943 2511,24/7,,,,,,,,,,,,,,,
,,hospital,Warm Springs Rehabilitation Hospital of Thousand Oaks,no,San Antonio,Jones Maltsberger Road,14747,78247,hospital,http://www.warmsprings.org/our-facilities/outpatient-rehabilitation/warm-springs-rehabilitation-hospital-thousand-oaks/,+1 210 581 5300,,Post Acute Medical,,,Compass Hospital of San Antonio,,,,,,,,,,,
,,hospital,Weimar Medical Center,yes,Weimar,Youens Drive,400,78962,hospital,,+1 979 725 8274,24/7,,,,Colorado - Fayette Medical Center,,,,,,,,,,,
,,hospital,West Houston Medical Center,yes,Houston,Richmond Avenue,12141,77082,hospital,https://westhoustonmedical.com/,+1 281 558 3444,24/7,Hospital Corporation of America,,TX,,,,,,,,,,,,
,,hospital,Wilbarger General Hospital,yes,Vernon,Hillcrest Drive,920,76384,hospital,https://www.wghospital.com/,+1 940 552 9351,24/7,,,,,,,,,,,,,,,
,,hospital,Wilford Hall Ambulatory Surgical Center,no,Joint Base San Antonio-Lackland,Wilford Hall Loop,1100,78236,hospital,https://www.59mdw.af.mil/,+1 210 292 7412,,United States Air Force,,,Wilford Hall Medical Center,,Q8001708,en:Wilford Hall Ambulatory Surgical Center,,WHASC,,,,,,private
,,hospital,William Beaumont Army Medical Center,yes,El Paso,North Piedras Street,5005,79930,hospital,https://www.wbamc.amedd.army.mil/,+1 915 742 2121,24/7,,,TX,,,Q14711408,en:William Beaumont Army Medical Center,,WBAMC,,,,,,
,,hospital,William P. Clements Jr. University Hospital,yes,Dallas,Harry Hines Boulevard,6201,75390,hospital,https://utswmed.org/locations/clements/,+1 214 633 5555,24/7,University of Texas Southwestern Medical Center,,,,,,,,,,,,,,
,,hospital,Wilson N. Jones Regional Medical Center,yes,Sherman,North Highland Avenue,500,75092,hospital,https://www.wnj.org/,+1 903 870 4611,24/7,,,,,,,,,,,,,,,
,,hospital,Winkler County Memorial Hospital,yes,Kermit,Jeffee Drive,821,79745,hospital,http://www.wcmh.net/,+1 432 586 5864,24/7,,19,,,,,,,WCMH,,,,,,
,,hospital,Wise Health Surgical Hospital,yes,Fort Worth,North Tarrant Parkway,3200,76177,hospital,https://www.wisehealthsurgicalhospital.com/parkway/,+1 817 502 7300,24/7,Wise Health System,24,,,,,,,,,,,,,
,,hospital,Wise Health System,no,Decatur,South FM 51,2000,76234,hospital,https://www.wisehealthsystem.com/,+1 940 627 5921,,,,,,,,,,,,,,,,
,,hospital,Wise Health System,yes,Decatur,Medical Center Drive,609,76234,hospital,https://www.wisehealthsystem.com/,+1 940 627 5921,24/7,Wise Health System,,,,,,,,,,,,,,
,,hospital,W.J. Mangold Memorial Hospital,yes,Lockney,North Main Street,320,79241,hospital,http://www.mangoldmemorial.org/,+1 800 687 6079,24/7,,25,,,,,,,,,,,,,
,,hospital,Woodland Heights Medical Center,yes,Lufkin,South John Redditt Drive,505,75904,hospital,https://www.woodlandheights.net/,+1 936 634 8311,24/7,,,TX,,,,,,,,,,,,
,,hospital,Yoakum Community Hospital,yes,Yoakum,Carl Ramert Drive,1200,77995,hospital,https://yoakumhospital.org/,+1 361 293 2321,24/7,,,,,,,,,,,,,,,
,,hospital,Yoakum County Hospital,yes,Denver City,Mustang Drive,412,79323,hospital,http://ych.us/,+1 806 592 2121,24/7,,,,,,,,,,,,,,,
,,hospital,Zale Lipshy University Hospital,no,Dallas,Harry Hines Boulevard,5201,75390,hospital,https://utswmed.org/locations/zale-lipshy/,+1 214 645 5555,,University of Texas Southwestern Medical Center,,,,,,,hospital,,,,,,,
,,hospital,,yes,Tyler,South Beckham Avenue,1000,75701,hospital,https://uthealthtylerhospital.com/,+1-903-597-0351,24/7,UT Health,,TX,East Texas Medical Center - Tyler,,,,,,,,,,,
,,hospital,,,,,,,hospital,,,,,,,,rehab,,,,,,,,,,
,,hospital,,,,,,,hospital,,,,,,,,,,,,,,,,,,
,,hospital,,,,,,,,,,,,,,Forest Park Medical Center,,,,,,,,,,,
,,hospital,,,,,,,,,,,,,,,,,,commercial,,,,,,,
,,hospital,,,,,,,,,,,,,,,,,,,,,,,,,
,,hospital,,,,,,,,,,,,,,,,,,,,,,,,,
